,latitude,longitude,zipcode,city.x,zip,city.y,state,Address,,,,,,,,,
1,34.10068649,-118.3642036,NA,LA,NA,NA,NA,1632, North Laurel Avenue, West Hollywood, Los Angeles County, California, 90046-2549, United States of America,,,
2,40.66902581,-73.97707905,NA,NYC,NA,NA,NA,513, 4th Street, Park Slope, Brooklyn, Kings County, New York City, New York,11215, United States of America,
3,40.70468493,-74.00722467,NA,NYC,NA,NA,NA,99 Wall Street,99, Wall Street, Southbridge Towers, Manhattan, New York County, New York City, New York,10005, United States of America
4,38.93970834,-76.99411326,NA,DC,NA,NA,NA,University Heights, United States of America,,,,,,,,
5,34.06834747,-118.3739811,NA,LA,NA,NA,NA,South Orlando Avenue, Carthay Circle, Los Angeles, Los Angeles County, California,90048, United States of America,,,
6,40.69894879,-73.91356958,NA,NYC,NA,NA,NA,317, Irving Avenue, Bushwick, Kings County, New York City, New York,11237, United States of America,,
7,38.90731059,-77.06135756,NA,DC,NA,NA,NA,1312, 31st Street Northwest, Georgetown, Washington, District of Columbia,20007, United States of America,,,
8,40.73875263,-73.98683216,NA,NYC,NA,NA,NA,Calvary Church,273, Park Avenue South, Flatiron, Manhattan, New York County, New York City, New York,10016, United States of America
9,40.57583894,-73.96840656,NA,NYC,NA,NA,NA,3101, Ocean Parkway, West Brighton, Kings County, New York City, New York,11235, United States of America,,
10,40.71080412,-73.99890624,NA,NYC,NA,NA,NA,15, Saint James Place, Southbridge Towers, Manhattan, New York County, New York City, New York,10038, United States of America,
11,34.16743415,-118.3930373,NA,LA,NA,NA,NA,Weddington Street, Garnsey, Valley Village, Los Angeles, Los Angeles County, California,91607, United States of America,,
12,40.65236746,-73.95878181,NA,NYC,NA,NA,NA,5, Linden Boulevard, Flatbush, Brooklyn, Kings County, New York City, New York,11226, United States of America,
13,40.63527207,-74.00677078,NA,NYC,NA,NA,NA,874, 58th Street, Borough Park, Kings County, New York City, New York,11220, United States of America,,
14,40.66687413,-73.956194,NA,NYC,NA,NA,NA,145, Crown Street, Crown Heights, Brooklyn, Kings County, New York City, New York,11225, United States of America,
15,34.08810943,-118.3052797,NA,LA,NA,NA,NA,7,11601, Hollywood Freeway, East Hollywood, Little Armenia, Los Angeles, Los Angeles County, California,90029, United States of America
16,40.66930978,-73.9362747,NA,NYC,NA,NA,NA,Ebenezer Seventh Day Adventist School, Eastern Parkway Service Road, Crown Heights, Brooklyn, Kings County, New York City, New York,11225, United States of America,
17,40.71605105,-73.95180109,NA,NYC,NA,NA,NA,520, Union Avenue, Williamsburg, Kings County, New York City, New York,11211, United States of America,,
18,41.77383935,-87.59310631,NA,Chicago,NA,NA,NA,6636-6638, South Kenwood Avenue, Brookdale, Chicago, Cook County, Illinois,60637, United States of America,,
19,37.78570003,-122.4446506,NA,SF,NA,NA,NA,Bush Street, Lower Pacific Heights, San Francisco, San Francisco City and County, California,94115, United States of America,,,
20,40.71110989,-73.91689355,NA,NYC,NA,NA,NA,1884, Starr Street, Bushwick, Kings County, New York City, New York,11385, United States of America,,
21,40.83313656,-73.91888306,NA,NYC,NA,NA,NA,1153, Grand Concourse, High Bridge, Bronx County, New York City, New York,10452, United States of America,,
22,42.31781669,-71.09135484,NA,Boston,NA,NA,NA,Henry L Higginson School, Harrishof Street, Roxbury Crossing, Roxbury, Boston, Suffolk County, Massachusetts,2119, United States of America,
23,40.70788997,-74.00760563,NA,NYC,NA,NA,NA,84, William Street, Southbridge Towers, Manhattan, New York County, New York City, New York,10038, United States of America,
24,34.13513102,-117.904155,NA,LA,NA,NA,NA,East 8th Street, Azusa, Los Angeles County, California,91702, United States of America,,,,
25,40.71780126,-73.98503674,NA,NYC,NA,NA,NA,176, Delancey Street, Lower East Side, Manhattan, New York County, New York City, New York,10002, United States of America,
26,41.87179729,-87.62744589,NA,Chicago,NA,NA,NA,One Place,1, East 8th Street, Printer's Row, Near North Side, Chicago, Cook County, Illinois,60605, United States of America
27,40.724109,-73.99081788,NA,NYC,NA,NA,NA,16, 2nd Avenue, NoHo, Manhattan, New York County, New York City, New York,10003, United States of America,
28,38.91886472,-77.01443361,NA,DC,NA,NA,NA,2121, 2nd Street Northwest, Columbia Heights, Washington, District of Columbia,20001, United States of America,,,
29,40.72206783,-74.00232008,NA,NYC,NA,NA,NA,78, Grand Street, Little Italy, Manhattan, New York County, New York City, New York,10013, United States of America,
30,37.76450721,-122.422749,NA,SF,NA,NA,NA,Delirium,3141, 16th Street, Mission District, San Francisco, San Francisco City and County, California,94114, United States of America,
31,34.04358873,-118.2628289,NA,LA,NA,NA,NA,Bowes Building,11601, West Olympic Boulevard, South Park, Bunker Hill, Los Angeles, Los Angeles County, California,90064, United States of America
32,34.04386311,-118.4504564,NA,LA,NA,NA,NA,West Los Angeles Community Police Station,11601, Butler Avenue, West Los Angeles, Westwood, Los Angeles, Los Angeles County, California,90025, United States of America
33,40.76730437,-73.96042524,NA,NYC,NA,NA,NA,219, East 69th Street, Upper East Side, Manhattan, New York County, New York City, New York,10021, United States of America,
34,38.91789589,-77.023082,NA,DC,NA,NA,NA,Atlantic Plumbing,2112, 8th Street Northwest, Cardozo/Shaw, Logan Circle, Washington, District of Columbia,20001, United States of America,
35,34.10312461,-118.3306569,NA,LA,NA,NA,NA,North Wilcox Avenue, Hollywood, Los Angeles, Los Angeles County, California,90028, United States of America,,,
36,38.9130207,-77.0321768,NA,DC,NA,NA,NA,1702, 14th Street Northwest, Logan Circle/Shaw, Logan Circle, Washington, District of Columbia,20010, United States of America,,
37,33.97785842,-118.4656221,NA,LA,NA,NA,NA,Venice/Marina Beachfront Bungalow, Ocean Front Walk, Venice, Los Angeles, Los Angeles County, California,90292, United States of America,,
38,40.77655675,-73.90993383,NA,NYC,NA,NA,NA,Steinway Branch Queens Borough Public Library, 21-51, 31st Street, Steinway, Queens County, New York City, New York,11105, United States of America,
39,34.05653731,-118.39163,NA,LA,NA,NA,NA,Cardiff Avenue, South Carthay, Palms, Los Angeles, Los Angeles County, California,90035, United States of America,,
40,34.02692472,-117.8053239,NA,LA,NA,NA,NA,Decorah Road, Diamond Bar, Los Angeles County, California,91765, United States of America,,,,
41,40.68263962,-73.94238194,NA,NYC,NA,NA,NA,288, Halsey Street, Bedford-Stuyvesant, Brooklyn, Kings County, New York City, New York,11216, United States of America,
42,40.69445186,-73.93828145,NA,NYC,NA,NA,NA,315, Hart Street, Bedford-Stuyvesant, Brooklyn, Kings County, New York City, New York,11206, United States of America,
43,33.87306446,-118.3786645,NA,LA,NA,NA,NA,Artesia Boulevard, Redondo Beach, Los Angeles County, California,90278, United States of America,,,,
44,33.76512447,-118.1774934,NA,LA,NA,NA,NA,South 5th Place, Willowville, Long Beach, Los Angeles County, California,90802, United States of America,,,
45,40.69511794,-73.92623962,NA,NYC,NA,NA,NA,314, Evergreen Avenue, Bushwick, Kings County, New York City, New York,11221, United States of America,,
46,34.1656502,-118.5189771,NA,LA,NA,NA,NA,Magnolia Boulevard, Encino, Los Angeles, Los Angeles County, California,91316, United States of America,,,
47,40.75166347,-73.9950574,NA,NYC,NA,NA,NA,The Olivia, West 34th Street, Hell's Kitchen, Manhattan, New York County, New York City, New York,10001, United States of America,
48,38.90921452,-77.03158349,NA,DC,NA,NA,NA,1323, Rhode Island Avenue Northwest, Logan Circle/Shaw, Logan Circle, Washington, District of Columbia,20005, United States of America,,
49,34.03871177,-118.2134294,NA,LA,NA,NA,NA,Soto Street, Brooklyn Heights, Boyle Heights, Los Angeles, Los Angeles County, California,90033, United States of America,,
50,40.74446378,-73.99908113,NA,NYC,NA,NA,NA,228, 8th Avenue, Chelsea, Manhattan, New York County, New York City, New York,10011, United States of America,
51,37.77671517,-122.4722185,NA,SF,NA,NA,NA,Muni, Balboa Street, Richmond District, San Francisco, San Francisco City and County, California,94121, United States of America,,
52,34.10482626,-118.1912697,NA,LA,NA,NA,NA,Leslie Way, Newton Park, Highland Park, Los Angeles, Los Angeles County, California,90042, United States of America,,
53,38.91002333,-77.06558416,NA,DC,NA,NA,NA,3223, Volta Place Northwest, Georgetown, Washington, District of Columbia,20007, United States of America,,,
54,41.90596528,-87.67351153,NA,Chicago,NA,NA,NA,1826, West Ellen Street, Wicker Park, Near North Side, Chicago, Cook County, Illinois,60622, United States of America,
55,40.70583498,-73.94109544,NA,NYC,NA,NA,NA,130, Humboldt Street, Williamsburg, Kings County, New York City, New York,11206, United States of America,,
56,37.78861484,-122.4149282,NA,SF,NA,NA,NA,Cup A Joe,896, Sutter Street, Nob Hill, San Francisco, San Francisco City and County, California,94115, United States of America,
57,34.09388259,-118.3656379,NA,LA,NA,NA,NA,North Crescent Heights Boulevard, West Hollywood, Los Angeles County, California,90046, United States of America,,,,
58,37.77330573,-122.412615,NA,SF,NA,NA,NA,Contech Auto Service Center,1398, Folsom Street, West SoMa, San Francisco, San Francisco City and County, California,94103, United States of America,
59,42.34460122,-71.07397574,NA,Boston,NA,NA,NA,5, Dartmouth Place, Chinatown, South End, Boston, Suffolk County, Massachusetts,2116, United States of America,
60,42.35066562,-71.07915282,NA,Boston,NA,NA,NA,Exeter Street Theatre, Public Alley 434, Chinatown, Back Bay, Boston, Suffolk County, Massachusetts,2116, United States of America,
61,38.88595879,-76.98424274,NA,DC,NA,NA,NA,231, 15th Street Southeast, Hill East, Capitol Hill, Washington, District of Columbia,20003, United States of America,,
62,34.04946915,-118.4603864,NA,LA,NA,NA,NA,Wilshire / Barrington,11601, Wilshire Boulevard, West Los Angeles, Brentwood, Los Angeles, Los Angeles County, California,90025, United States of America
63,40.7210399,-73.98297504,NA,NYC,NA,NA,NA,319, East Houston Street, Alphabet City, Manhattan, New York County, New York City, New York,10002, United States of America,
64,40.82411069,-73.94404413,NA,NYC,NA,NA,NA,267, Edgecombe Avenue, Hamilton Heights, Manhattan, New York County, New York City, New York,10031, United States of America,
65,40.79914038,-73.95159006,NA,NYC,NA,NA,NA,26, Malcolm X Boulevard, East Harlem, Manhattan, New York County, New York City, New York,10026, United States of America,
66,40.75005382,-73.99897875,NA,NYC,NA,NA,NA,317, 9th Avenue, Chelsea, Manhattan, New York County, New York City, New York,10001, United States of America,
67,34.0718583,-118.3814292,NA,LA,NA,NA,NA,South Hamel Road, South Carthay, Los Angeles, Los Angeles County, California,90048, United States of America,,,
68,40.82183238,-73.93780096,NA,NYC,NA,NA,NA,160, West 146th Street, Hamilton Heights, Manhattan, New York County, New York City, New York,10039, United States of America,
69,37.78390503,-122.4119145,NA,SF,NA,NA,NA,Advance Auto Repair,265, Eddy Street, West SoMa, San Francisco, San Francisco City and County, California,94102, United States of America,
70,37.76996814,-122.3925761,NA,SF,NA,NA,NA,Gene Friend Way, Mission Bay, San Francisco, San Francisco City and County, California,94143, United States of America,,,
71,40.72271141,-73.99517695,NA,NYC,NA,NA,NA,233, Mott Street, Little Italy, Manhattan, New York County, New York City, New York,10012, United States of America,
72,42.33618514,-71.07342146,NA,Boston,NA,NA,NA,91  E Concord St, East Concord Street, Chinatown, South End, Boston, Suffolk County, Massachusetts,2118, United States of America,
73,38.93683753,-76.99354823,NA,DC,NA,NA,NA,3746, 10th Street Northeast, University Heights, Washington, District of Columbia,20017, United States of America,,,
74,40.72572144,-73.98143607,NA,NYC,NA,NA,NA,Tompkins Square Park, East 9th Street, Alphabet City, Manhattan, New York County, New York City, New York,10009, United States of America,
75,37.7277411,-122.3932767,NA,SF,NA,NA,NA,McDonald's, Yosemite Avenue, Bayview District, San Francisco, San Francisco City and County, California,94124, United States of America,,
76,40.7846906,-73.95027675,NA,NYC,NA,NA,NA,180, East 95th Street, Washington Houses, Manhattan, New York County, New York City, New York,10128, United States of America,
77,34.02054519,-118.4058165,NA,LA,NA,NA,NA,3755, Mentone Avenue, Palms, Los Angeles, Los Angeles County, California,90034, United States of America,,
78,34.06720459,-118.354385,NA,LA,NA,NA,NA,Curson Avenue East, Park La Brea, Hollywood, Los Angeles, Los Angeles County, California,90036, United States of America,,
79,34.04612445,-118.2510907,NA,LA,NA,NA,NA,Crack Gallery,11601, West 6th Street, Historic Core District, Bunker Hill, Los Angeles, Los Angeles County, California,90014, United States of America
80,38.92886929,-77.03603494,NA,DC,NA,NA,NA,Bell Multicultural Senior High School,3101, 16th Street Northwest, Columbia Heights, Washington, District of Columbia,20012, United States of America,,
81,34.1284478,-118.0742825,NA,LA,NA,NA,NA,Los Angeles County Fire Department Station #5, Rosemead Boulevard, Arcadia, Los Angeles County, California,91775, United States of America,,,
82,40.74398721,-73.95321124,NA,NYC,NA,NA,NA,09-Oct, 48th Avenue, Long Island City, Queens County, New York City, New York,11101, United States of America,,
83,40.79946537,-73.93958974,NA,NYC,NA,NA,NA,172, East 118th Street, East Harlem, Manhattan, New York County, New York City, New York,10035, United States of America,
84,42.37972786,-71.03424236,NA,Boston,NA,NA,NA,Trenton Street, Jeffries Point, East Boston, Boston, Suffolk County, Massachusetts,2128, United States of America,,
85,40.71955309,-73.96048798,NA,NYC,NA,NA,NA,83, North 7th Street, Williamsburg, Kings County, New York City, New York,11249, United States of America,,
86,40.65633546,-73.95846243,NA,NYC,NA,NA,NA,48, Winthrop Street, Flatbush, Brooklyn, Kings County, New York City, New York,11225, United States of America,
87,34.04793458,-118.2581559,NA,LA,NA,NA,NA,Sheraton,11601, South Hope Street, Financial District, Bunker Hill, Los Angeles, Los Angeles County, California,90015, United States of America
88,34.01846842,-118.3921841,NA,LA,NA,NA,NA,Duquesne Avenue, Culver City, Los Angeles County, California,90232, United States of America,,,,
89,34.05130296,-118.2444573,NA,LA,NA,NA,NA,Los Angeles Police Department Headquarters, South Spring Street, Historic Core District, Little Tokyo Historic District, Los Angeles, Los Angeles County, California,90012, United States of America,
90,40.57788352,-73.96904987,NA,NYC,NA,NA,NA,Trump Village Apartments,3000, Ocean Parkway, Gravesend, Kings County, New York City, New York,11224, United States of America,
91,34.16329973,-118.1633747,NA,LA,NA,NA,NA,North Arroyo Boulevard, Pasadena, Los Angeles County, California,91105, United States of America,,,,
92,40.71327722,-74.00486628,NA,NYC,NA,NA,NA,Tweed Courthouse,52, Chambers Street, Tribeca, Manhattan, New York County, New York City, New York,10007, United States of America
93,38.90176411,-76.9860931,NA,DC,NA,NA,NA,1119, Orren Street Northeast, Trinidad, Washington, District of Columbia,20002, United States of America,,,
94,34.03951492,-118.4479298,NA,LA,NA,NA,NA,Colby Avenue, Sawtelle, Westwood, Los Angeles, Los Angeles County, California,90025, United States of America,,
95,38.91198205,-77.05390123,NA,DC,NA,NA,NA,Rock Creek Trail, Georgetown, Washington, District of Columbia,20037, United States of America,,,,
96,40.6884561,-73.91770133,NA,NYC,NA,NA,NA,1122, Putnam Avenue, Bushwick, Kings County, New York City, New York,11221, United States of America,,
97,37.79760553,-122.4226227,NA,SF,NA,NA,NA,1435, Green Street, Russian Hill, San Francisco, San Francisco City and County, California,94109, United States of America,,
98,40.72069042,-73.95453292,NA,NYC,NA,NA,NA,Citi Bike - N 12 St & Bedford Ave, North 12th Street, Greenpoint, Kings County, New York City, New York,11211, United States of America,,
99,34.154154,-118.4571891,NA,LA,NA,NA,NA,Kester Avenue, Sherman Oaks, Los Angeles, Los Angeles County, California,91405, United States of America,,,
100,40.68756202,-74.00413363,NA,NYC,NA,NA,NA,Columbia Street Greenway, Columbia Street Waterfront District, Kings County, New York City, New York,11231, United States of America,,,
101,40.71263673,-73.94291345,NA,NYC,NA,NA,NA,187, Powers Street, Williamsburg, Kings County, New York City, New York,11211, United States of America,,
102,33.99539244,-118.4641347,NA,LA,NA,NA,NA,Oakwood Recreation Center, 7th Avenue, Venice, Los Angeles, Los Angeles County, California,90291, United States of America,,
103,40.83351633,-73.93729329,NA,NYC,NA,NA,NA,159-48, Harlem River Drive Greenway, Hamilton Heights, Manhattan, New York County, New York City, New York,10039, United States of America,
104,40.77448689,-73.99027734,NA,NYC,NA,NA,NA,60, Riverside Boulevard, Midtown West, Manhattan, New York County, New York City, New York,10069, United States of America,
105,40.67947627,-73.99986073,NA,NYC,NA,NA,NA,498, Clinton Street, Cobble Hill Historic District, Kings County, New York City, New York,11231, United States of America,,
106,40.64348169,-73.96410319,NA,NYC,NA,NA,NA,284, East 16th Street, Ditmas Park, Brooklyn, Kings County, New York City, New York,11226, United States of America,
107,37.77374157,-122.3915027,NA,SF,NA,NA,NA,Venue,1155, 4th Street, Mission Bay, San Francisco, San Francisco City and County, California,94158, United States of America,
108,34.0055704,-118.4455681,NA,LA,NA,NA,NA,Beethoven Street, Mar Vista, Los Angeles, Los Angeles County, California,90066, United States of America,,,
109,38.9353408,-77.05783868,NA,DC,NA,NA,NA,3427, Connecticut Avenue Northwest, Cleveland Park, Washington, District of Columbia,20008, United States of America,,,
110,33.76554868,-118.1805145,NA,LA,NA,NA,NA,South 2nd Place, Willowville, Long Beach, Los Angeles County, California,90802, United States of America,,,
111,38.93873169,-77.06009376,NA,DC,NA,NA,NA,3801, Connecticut Avenue Northwest, Cleveland Park, Washington, District of Columbia,20015, United States of America,,,
112,40.74552794,-73.99784392,NA,NYC,NA,NA,NA,271, West 23rd Street, Chelsea, Manhattan, New York County, New York City, New York,10011, United States of America,
113,34.15208822,-118.754532,NA,LA,NA,NA,NA,Valley Heights Drive, Agoura Hills, Los Angeles County, California,91301, United States of America,,,,
114,40.72056692,-73.9833968,NA,NYC,NA,NA,NA,155, Attorney Street, Alphabet City, Manhattan, New York County, New York City, New York,10002, United States of America,
115,40.79565924,-73.94403643,NA,NYC,NA,NA,NA,138, East 112th Street, East Harlem, Manhattan, New York County, New York City, New York,10029, United States of America,
116,40.86980116,-73.92254787,NA,NYC,NA,NA,NA,144, Seaman Avenue, Inwood, Manhattan, New York County, New York City, New York,10034, United States of America,
117,40.74960806,-73.97845908,NA,NYC,NA,NA,NA,114, East 39th Street, Murray Hill, Manhattan, New York County, New York City, New York,10016, United States of America,
118,34.08043222,-117.8338036,NA,LA,NA,NA,NA,Via Esperanza, Charter Oak Mobile Estates, Los Angeles County, California,91773, United States of America,,,,
119,34.43754896,-118.4040232,NA,LA,NA,NA,NA,Violetlane Way, Santa Clarita, Los Angeles County, California,91387, United States of America,,,,
120,33.87069884,-118.1890233,NA,LA,NA,NA,NA,Pali Drive, North Long Beach, Long Beach, Los Angeles County, California,90805, United States of America,,,
121,37.77868902,-122.4695625,NA,SF,NA,NA,NA,11th Avenue, Richmond District, San Francisco, San Francisco City and County, California,94118, United States of America,,,
122,40.7206374,-73.99628908,NA,NYC,NA,NA,NA,San Lorenzo Ruiz Chapel,378, Broome Street, Little Italy, Manhattan, New York County, New York City, New York,10012, United States of America
123,33.86739229,-118.1887713,NA,LA,NA,NA,NA,East Harding Street, North Long Beach, Long Beach, Los Angeles County, California,90805, United States of America,,,
124,41.9041616,-87.62943891,NA,Chicago,NA,NA,NA,1201-1207, North Dearborn Street, Gold Coast, Near North Side, Chicago, Cook County, Illinois,60610, United States of America,
125,33.97924401,-118.4510847,NA,LA,NA,NA,NA,Panay Way, Marina del Rey, Ocean Park, Los Angeles County, California,90292, United States of America,,,
126,40.8015063,-73.96594496,NA,NYC,NA,NA,NA,207, West 107th Street, Park West Village, Manhattan, New York County, New York City, New York,10025, United States of America,
127,40.71014446,-73.95871091,NA,NYC,NA,NA,NA,239, South 4th Street, Williamsburg, Kings County, New York City, New York,11211, United States of America,,
128,34.02516121,-118.5003408,NA,LA,NA,NA,NA,Idaho Avenue, Santa Monica, Los Angeles County, California,90403, United States of America,,,,
129,34.05227091,-118.2437895,NA,LA,NA,NA,NA,Los Angeles City Hall Park, West 1st Street, Civic Center, Little Tokyo Historic District, Los Angeles, Los Angeles County, California,90012, United States of America,
130,37.79750257,-122.400251,NA,SF,NA,NA,NA,Saybrook Graduate School and Research Center, Pacific Avenue, Northeast Waterfront Historic District, San Francisco, San Francisco City and County, California,94118, United States of America,,
131,40.74564339,-73.97658267,NA,NYC,NA,NA,NA,222, East 35th Street, Murray Hill, Manhattan, New York County, New York City, New York,10016, United States of America,
132,34.07885627,-118.3926919,NA,LA,NA,NA,NA,Civic Center Drive, Beverly Hills, Los Angeles County, California,90210, United States of America,,,,
133,40.74546579,-73.93184167,NA,NYC,NA,NA,NA,43-30, 33rd Street, Sunnyside, Queens County, New York City, New York,11101, United States of America,,
134,40.70726022,-74.00599007,NA,NYC,NA,NA,NA,116 John Street,116, John Street, Southbridge Towers, Manhattan, New York County, New York City, New York,10038, United States of America
135,40.70704377,-73.93762508,NA,NYC,NA,NA,NA,270, Johnson Avenue, Williamsburg, Kings County, New York City, New York,11206, United States of America,,
136,38.92170888,-77.04566416,NA,DC,NA,NA,NA,1869, Mintwood Place Northwest, Adams Morgan, Woodley Park, Washington, District of Columbia,20009, United States of America,,
137,34.13198983,-118.2058435,NA,LA,NA,NA,NA,Eagle Rock High School, Yosemite Drive, Eagle Rock, Highland Park, Los Angeles, Los Angeles County, California,90041, United States of America,
138,34.02605281,-118.2095383,NA,LA,NA,NA,NA,Garnet Street, Ninth Street Junction, Boyle Heights, Los Angeles, Los Angeles County, California,90023, United States of America,,
139,40.71197622,-73.96114385,NA,NYC,NA,NA,NA,Bistro Petit,774, Driggs Avenue, Williamsburg, Kings County, New York City, New York,11211, United States of America,
140,38.92871521,-77.02228929,NA,DC,NA,NA,NA,642, Irving Street Northwest, Pleasant Plains, Columbia Heights, Washington, District of Columbia,20010, United States of America,,
141,40.76275973,-73.99773094,NA,NYC,NA,NA,NA,595, 11th Avenue, Clinton, Manhattan, New York County, New York City, New York,10036, United States of America,
142,33.99572975,-118.4773957,NA,LA,NA,NA,NA,Main Street, Venice, Los Angeles, Los Angeles County, California,90291, United States of America,,,
143,37.78658506,-122.3897617,NA,SF,NA,NA,NA,Beale Street, South Beach, San Francisco, San Francisco City and County, California,94105, United States of America,,,
144,41.90429208,-87.6767369,NA,Chicago,NA,NA,NA,1233, North Damen Avenue, Wicker Park, Near North Side, Chicago, Cook County, Illinois,60625, United States of America,
145,40.75761786,-73.98508729,NA,NYC,NA,NA,NA,1530, Broadway, Diamond District, Manhattan, New York County, New York City, New York,10036, United States of America,
146,34.02890491,-118.4014203,NA,LA,NA,NA,NA,Exposition Boulevard, Los Angeles, Los Angeles County, California,90034, United States of America,,,,
147,40.64346787,-73.99267246,NA,NYC,NA,NA,NA,1034, 40th Street, Borough Park, Brooklyn, Kings County, New York City, New York,11219, United States of America,
148,38.88128888,-77.02380591,NA,DC,NA,NA,NA,819, G Street Southwest, Southwest/Waterfront, Penn Quarter, Washington, District of Columbia,20024, United States of America,,
149,40.76188557,-73.92250317,NA,NYC,NA,NA,NA,31-60, 34th Street, Astoria, Queens County, New York City, New York,11106, United States of America,,
150,40.74397798,-73.99664319,NA,NYC,NA,NA,NA,208, West 23rd Street, Chelsea, Manhattan, New York County, New York City, New York,10011, United States of America,
151,37.79124176,-122.4181094,NA,SF,NA,NA,NA,Kitty's Nails,1436, California Street, Nob Hill, San Francisco, San Francisco City and County, California,94121, United States of America,
152,40.7125414,-73.93806028,NA,NYC,NA,NA,NA,904, Grand Street, Williamsburg, Kings County, New York City, New York,11206, United States of America,,
153,34.0585248,-118.3988185,NA,LA,NA,NA,NA,Smithwood Drive, Beverly Hills, Los Angeles County, California,90212, United States of America,,,,
154,34.050218,-118.4585874,NA,LA,NA,NA,NA,Wilshire Blvd / Federal Ave, Wilshire Boulevard, West Los Angeles, Brentwood, Los Angeles, Los Angeles County, California,90025, United States of America,
155,40.74023397,-74.00269702,NA,NYC,NA,NA,NA,New York Savings Bank Building, West 14th Street, Chelsea, Manhattan, New York County, New York City, New York,10014, United States of America,
156,33.9960412,-118.44598,NA,LA,NA,NA,NA,Walgrove Avenue, Mar Vista, Los Angeles, Los Angeles County, California,90066, United States of America,,,
157,40.68816461,-73.95363807,NA,NYC,NA,NA,NA,431, Greene Avenue, Bedford-Stuyvesant, Brooklyn, Kings County, New York City, New York,11216, United States of America,
158,40.76162971,-73.91044166,NA,NYC,NA,NA,NA,45-18, 30th Avenue, Steinway, Queens County, New York City, New York,11103, United States of America,,
159,38.90358719,-77.02593739,NA,DC,NA,NA,NA,PEPCO Substation 52,1025, 10th Street Northwest, Mount Vernon Square, Logan Circle, Washington, District of Columbia,20001, United States of America,
160,40.7580262,-73.97159721,NA,NYC,NA,NA,NA,135, East 52nd Street, Tudor City, Manhattan, New York County, New York City, New York,10022, United States of America,
161,38.90309881,-77.00420994,NA,DC,NA,NA,NA,L Street Northeast, Near Northeast, Washington, District of Columbia,20002, United States of America,,,,
162,38.95487167,-77.03523919,NA,DC,NA,NA,NA,5308, Colorado Avenue Northwest, 16th Street Heights, Columbia Heights, Washington, District of Columbia,20011, United States of America,,
163,40.72056756,-73.9626633,NA,NYC,NA,NA,NA,The Edge North Tower,34, North 7th Street, Williamsburg, Kings County, New York City, New York,11211, United States of America,
164,40.82648915,-73.94544632,NA,NYC,NA,NA,NA,408, Convent Avenue, Hamilton Heights, Manhattan, New York County, New York City, New York,10031, United States of America,
165,34.07799819,-118.691651,NA,LA,NA,NA,NA,Cold Canyon Road, Monte Nido, Los Angeles County, California,91302, United States of America,,,,
166,40.76696726,-73.98573746,NA,NYC,NA,NA,NA,352, West 56th Street, Lincoln Square, Manhattan, New York County, New York City, New York,10019, United States of America,
167,34.14543413,-118.6320224,NA,LA,NA,NA,NA,Vicasa Drive, Calabasas, Los Angeles County, California,91302, United States of America,,,,
168,38.90958552,-77.02726278,NA,DC,NA,NA,NA,1426, 11th Street Northwest, Logan Circle/Shaw, Logan Circle, Washington, District of Columbia,20001, United States of America,,
169,34.08796776,-118.2740936,NA,LA,NA,NA,NA,Hamilton Way, Silver Lake, Angelino Heights, Los Angeles, Los Angeles County, California,90026, United States of America,,
170,34.09226266,-118.3266769,NA,LA,NA,NA,NA,Hollywood-Vine Methodist Church,11601, Lexington Avenue, Hollywood, Los Angeles, Los Angeles County, California,90038, United States of America,
171,41.89494503,-87.64941633,NA,Chicago,NA,NA,NA,680, North Green Street, Cabrini-Green, Near North Side, Chicago, Cook County, Illinois,60622, United States of America,
172,33.98919323,-118.4142837,NA,LA,NA,NA,NA,Havelock Avenue, Del Rey, Culver Garden, Los Angeles, Los Angeles County, California,90066, United States of America,,
173,34.09026016,-118.2955053,NA,LA,NA,NA,NA,North Heliotrope Drive, East Hollywood, Little Armenia, Los Angeles, Los Angeles County, California,90029, United States of America,,
174,40.78074154,-73.9523301,NA,NYC,NA,NA,NA,1585, 3rd Avenue, Yorkville, Manhattan, New York County, New York City, New York,10128, United States of America,
175,34.08166987,-118.3424556,NA,LA,NA,NA,NA,Clinton Street, Park La Brea, Hollywood, Los Angeles, Los Angeles County, California,90036, United States of America,,
176,40.76404192,-73.92536257,NA,NYC,NA,NA,NA,31-31, 29th Street, Astoria, Queens County, New York City, New York,11106, United States of America,,
177,40.66267675,-73.84055371,NA,NYC,NA,NA,NA,New Park Pizza, 156-57, Cross Bay Boulevard, Howard Beach, Queens County, New York City, New York,11414, United States of America,
178,40.71319342,-74.00493791,NA,NYC,NA,NA,NA,Tweed Courthouse,52, Chambers Street, Tribeca, Manhattan, New York County, New York City, New York,10007, United States of America
179,40.74734026,-73.98558196,NA,NYC,NA,NA,NA,320, 5th Avenue, Koreatown, Manhattan, New York County, New York City, New York,10001, United States of America,
180,40.7516357,-74.0014575,NA,NYC,NA,NA,NA,Abington House,500, West 30th Street, Chelsea, Manhattan, New York County, New York City, New York,10001, United States of America
181,38.89095099,-76.99022786,NA,DC,NA,NA,NA,121, 12th Street Northeast, Capitol Hill, Washington, District of Columbia,20002, United States of America,,,
182,33.81522977,-118.3868687,NA,LA,NA,NA,NA,South Catalina Avenue, Redondo Beach, Los Angeles County, California,90277, United States of America,,,,
183,40.74310776,-73.98286336,NA,NYC,NA,NA,NA,127, East 28th Street, Rose Hill, Manhattan, New York County, New York City, New York,10016, United States of America,
184,38.8899081,-76.98740895,NA,DC,NA,NA,NA,1326, East Capitol Street Northeast, Capitol Hill, Washington, District of Columbia,20003, United States of America,,,
185,42.37056494,-71.03941521,NA,Boston,NA,NA,NA,Maverick Square, Jeffries Point, East Boston, Boston, Suffolk County, Massachusetts,2109, United States of America,,
186,34.16530839,-118.3635987,NA,LA,NA,NA,NA,Magnolia Boulevard, La Paco, North Hollywood, Los Angeles, Los Angeles County, California,91601, United States of America,,
187,40.77859797,-73.9855403,NA,NYC,NA,NA,NA,301, West 70th Street, Midtown West, Manhattan, New York County, New York City, New York,10023, United States of America,
188,34.14756156,-118.143914,NA,LA,NA,NA,NA,Pasadena City Hall, North Garfield Avenue, Pasadena, Los Angeles County, California,91101, United States of America,,,
189,34.1148533,-118.3218959,NA,LA,NA,NA,NA,North Gower Street, Hollywood, Los Angeles, Los Angeles County, California,90068, United States of America,,,
190,34.05194528,-118.2446182,NA,LA,NA,NA,NA,Los Angeles Police Department Headquarters, South Spring Street, Historic Core District, Little Tokyo Historic District, Los Angeles, Los Angeles County, California,90012, United States of America,
191,34.05299269,-118.4374978,NA,LA,NA,NA,NA,Malcolm Avenue, Westwood, Los Angeles, Los Angeles County, California,90024, United States of America,,,
192,40.76770792,-73.91675268,NA,NYC,NA,NA,NA,25-80, 35th Street, Astoria, Queens County, New York City, New York,11103, United States of America,,
193,40.66099478,-73.96082576,NA,NYC,NA,NA,NA,1141, Washington Avenue, Flatbush, Brooklyn, Kings County, New York City, New York,11225, United States of America,
194,33.97878878,-118.4618099,NA,LA,NA,NA,NA,Via Dolce, Los Angeles, Los Angeles County, California,90292, United States of America,,,,
195,33.99757219,-118.3256696,NA,LA,NA,NA,NA,8th Avenue, Van Ness, Leimert Park, Los Angeles, Los Angeles County, California,90043, United States of America,,
196,34.18422244,-118.4026414,NA,LA,NA,NA,NA,Debby Street, Garnsey, Valley Village, Los Angeles, Los Angeles County, California,91606, United States of America,,
197,34.16263259,-118.3630567,NA,LA,NA,NA,NA,Willowcrest Avenue, La Paco, North Hollywood, Los Angeles, Los Angeles County, California,91601, United States of America,,
198,34.07755206,-118.3686411,NA,LA,NA,NA,NA,North Harper Avenue, Whitley Heights, Los Angeles, Los Angeles County, California,90046, United States of America,,,
199,33.86875229,-118.2580689,NA,LA,NA,NA,NA,Lysander Drive, Keystone, Carson, Los Angeles County, California,90746, United States of America,,,
200,40.71767389,-73.95707077,NA,NYC,NA,NA,NA,171, North 7th Street, Williamsburg, Kings County, New York City, New York,11211, United States of America,,
201,40.70326131,-73.92922092,NA,NYC,NA,NA,NA,124, George Street, Bushwick, Kings County, New York City, New York,11237, United States of America,,
202,40.63110092,-74.00445178,NA,NYC,NA,NA,NA,1061, 61st Street, Bay Ridge, Kings County, New York City, New York,11219, United States of America,,
203,40.71248267,-74.00527846,NA,NYC,NA,NA,NA,City Hall,260, Broadway, Tribeca, Manhattan, New York County, New York City, New York,10003, United States of America
204,40.82093724,-73.95744782,NA,NYC,NA,NA,NA,634, West 135th Street, Manhattanville, Manhattan, New York County, New York City, New York,10031, United States of America,
205,34.028458,-118.7544855,NA,LA,NA,NA,NA,Latigo Shore Drive, Malibu, Los Angeles County, California,90265, United States of America,,,,
206,37.79508167,-122.4117796,NA,SF,NA,NA,NA,Cable Car Barn and Museum,1201, Mason Street, Nob Hill, San Francisco, San Francisco City and County, California,94133, United States of America,
207,34.16746863,-118.3760371,NA,LA,NA,NA,NA,Panera Bread, Chandler Boulevard, La Paco, North Hollywood, Los Angeles, Los Angeles County, California,91401, United States of America,
208,40.74450084,-73.98339219,NA,NYC,NA,NA,NA,California Pizza Kitchen, East 30th Street, Rose Hill, Manhattan, New York County, New York City, New York,10016, United States of America,
209,37.77546877,-122.4183063,NA,SF,NA,NA,NA,Muni, 11th Street, West SoMa, San Francisco, San Francisco City and County, California,94103, United States of America,,
210,40.71722027,-73.99645697,NA,NYC,NA,NA,NA,54, Elizabeth Street, Little Italy, Manhattan, New York County, New York City, New York,10013, United States of America,
211,40.72732318,-73.98094855,NA,NYC,NA,NA,NA,321, East 10th Street, Alphabet City, Manhattan, New York County, New York City, New York,10009, United States of America,
212,40.7253494,-73.99659503,NA,NYC,NA,NA,NA,600, Broadway, SoHo, Manhattan, New York County, New York City, New York,10012, United States of America,
213,40.81434878,-73.94587943,NA,NYC,NA,NA,NA,210, West 133rd Street, Harlem, Manhattan, New York County, New York City, New York,10027, United States of America,
214,37.80477953,-122.4409978,NA,SF,NA,NA,NA,Avila Street, Marina District, San Francisco, San Francisco City and County, California,94123, United States of America,,,
215,40.66593051,-73.95082323,NA,NYC,NA,NA,NA,897, Nostrand Avenue, Crown Heights, Brooklyn, Kings County, New York City, New York,11225, United States of America,
216,33.9939985,-118.4758427,NA,LA,NA,NA,NA,Vegan scene,610, Main Street, Venice, Los Angeles, Los Angeles County, California,90291, United States of America,
217,38.924472,-77.03256472,NA,DC,NA,NA,NA,1400, Fairmont Street Northwest, Columbia Heights, Washington, District of Columbia,20009, United States of America,,,
218,41.83781697,-87.66206722,NA,Chicago,NA,NA,NA,3041, South Pitney Court, Locks, Chicago, Cook County, Illinois,60608, United States of America,,
219,40.71287892,-73.93688286,NA,NYC,NA,NA,NA,937, Grand Street, Williamsburg, Kings County, New York City, New York,11211, United States of America,,
220,40.72248307,-73.98316295,NA,NYC,NA,NA,NA,30, Avenue B, Alphabet City, Manhattan, New York County, New York City, New York,10009, United States of America,
221,40.65336799,-73.94855103,NA,NYC,NA,NA,NA,287, Linden Boulevard, Brooklyn Community Board 17 Neighborhoods, Brooklyn, Kings County, New York City, New York,11226, United States of America,
222,33.79937475,-118.316879,NA,LA,NA,NA,NA,West 248th Street, Lomita, Los Angeles County, California,90717, United States of America,,,,
223,40.75496778,-73.91765042,NA,NYC,NA,NA,NA,44-02, 34th Avenue, Sunnyside Gardens, Queens County, New York City, New York,11101, United States of America,,
224,40.717595,-73.94387604,NA,NYC,NA,NA,NA,193, Withers Street, Greenpoint, Kings County, New York City, New York,11211, United States of America,,
225,41.89556253,-87.66046543,NA,Chicago,NA,NA,NA,740, North Throop Street, Near West Side, Near North Side, Chicago, Cook County, Illinois,60622, United States of America,
226,33.77145442,-118.1699966,NA,LA,NA,NA,NA,East 4th Street, Belmont Shore, Long Beach, Los Angeles County, California,90814, United States of America,,,
227,34.10919868,-118.3155902,NA,LA,NA,NA,NA,Valley Oak Drive, Little Armenia, Los Angeles, Los Angeles County, California,90068, United States of America,,,
228,40.71837729,-73.8449868,NA,NYC,NA,NA,NA,11, Greenway Terrace, Forest Hills Gardens, Queens County, New York City, New York,11375, United States of America,,
229,33.83942446,-118.3862454,NA,LA,NA,NA,NA,South Broadway, Redondo Beach, Los Angeles County, California,90277, United States of America,,,,
230,33.86328328,-118.3995413,NA,LA,NA,NA,NA,Palm Drive, Hermosa Beach, Los Angeles County, California,90254, United States of America,,,,
231,40.72076562,-73.8148494,NA,NYC,NA,NA,NA,147-36, 78th Avenue, Queens, Queens County, New York City, New York,11367, United States of America,,
232,40.81348266,-73.95731608,NA,NYC,NA,NA,NA,George Bruce Library,518, West 125th Street, Manhattanville, Manhattan, New York County, New York City, New York,10027, United States of America
233,40.70662163,-74.01268665,NA,NYC,NA,NA,NA,One Exchange Plaza,39, Broadway, Battery Park City, Manhattan, New York County, New York City, New York,10003, United States of America
234,34.06224616,-118.3656851,NA,LA,NA,NA,NA,Warner Drive, Carthay Circle, The Village Green, Los Angeles, Los Angeles County, California,90048, United States of America,,
235,33.84225889,-118.3815197,NA,LA,NA,NA,NA,Emerald Street, Redondo Beach, Los Angeles County, California,90277, United States of America,,,,
236,40.73728946,-73.98730473,NA,NYC,NA,NA,NA,108, East 19th Street, Rose Hill, Manhattan, New York County, New York City, New York,10003, United States of America,
237,34.04178753,-118.291582,NA,LA,NA,NA,NA,South Vermont Avenue, Koreatown, Saint James Park, Los Angeles, Los Angeles County, California,90006, United States of America,,
238,42.34329095,-71.14245218,NA,Boston,NA,NA,NA,7-Eleven, Washington Street, Aberdeen, Brighton, Boston, Suffolk County, Massachusetts,2135, United States of America,
239,40.68718244,-73.94027497,NA,NYC,NA,NA,NA,620, Gates Avenue, Bedford-Stuyvesant, Brooklyn, Kings County, New York City, New York,11221, United States of America,
240,40.76310162,-73.9859823,NA,NYC,NA,NA,NA,Hampton Inn,851, 8th Avenue, Midtown West, Manhattan, New York County, New York City, New York,10019, United States of America
241,40.71672251,-73.9966614,NA,NYC,NA,NA,NA,40, Elizabeth Street, Little Italy, Manhattan, New York County, New York City, New York,10013, United States of America,
242,33.77276132,-118.4116232,NA,LA,NA,NA,NA,Via Palestra, Palos Verdes Estates, Los Angeles County, California,90274, United States of America,,,,
243,34.10837877,-118.3109147,NA,LA,NA,NA,NA,Tryon Road, Little Armenia, Los Angeles, Los Angeles County, California,90068, United States of America,,,
244,40.71050158,-73.94693056,NA,NYC,NA,NA,NA,90, Maujer Street, Williamsburg, Kings County, New York City, New York,11206, United States of America,,
245,34.03476038,-118.4755955,NA,LA,NA,NA,NA,Arizona Avenue, Santa Monica, Los Angeles County, California,90404, United States of America,,,,
246,38.87703867,-76.9638343,NA,DC,NA,NA,NA,3032, M Place Southeast, Twining, Capitol Hill, Washington, District of Columbia,20019, United States of America,,
247,40.67633694,-73.99919635,NA,NYC,NA,NA,NA,514, Court Street, Carroll Gardens, Kings County, New York City, New York,11231, United States of America,,
248,37.7841902,-122.3898224,NA,SF,NA,NA,NA,1 Bayside Village,1, Bayside Village Place, Bayside Village, San Francisco, San Francisco City and County, California,94107, United States of America,
249,40.70795913,-74.01236901,NA,NYC,NA,NA,NA,Trinity Church, Trinity Place, Battery Park City, Manhattan, New York County, New York City, New York,10006, United States of America,
250,34.17204989,-118.6474277,NA,LA,NA,NA,NA,El Canon Avenue, West Hills, Los Angeles, Los Angeles County, California,91367, United States of America,,,
251,42.35997472,-71.06635012,NA,Boston,NA,NA,NA,Coburns Gaming House, Phillips Street, Downtown Crossing, Beacon Hill, Boston, Suffolk County, Massachusetts,2114, United States of America,
252,34.15392332,-118.4552291,NA,LA,NA,NA,NA,Willis Avenue, Sherman Oaks, Los Angeles, Los Angeles County, California,91403, United States of America,,,
253,37.80244118,-122.4089967,NA,SF,NA,NA,NA,San Francisco Fire Station 28, Greenwich Street, North Beach, San Francisco, San Francisco City and County, California,94123, United States of America,,
254,37.79530271,-122.4112131,NA,SF,NA,NA,NA,Jackson Street, Nob Hill, San Francisco, San Francisco City and County, California,94118, United States of America,,,
255,40.73389108,-73.99334934,NA,NYC,NA,NA,NA,22, East 12th Street, East Village, Manhattan, New York County, New York City, New York,10003, United States of America,
256,34.02923521,-117.8109568,NA,LA,NA,NA,NA,Foothill Transit 482, Diamond Bar Boulevard, Diamond Bar, Los Angeles County, California,91765, United States of America,,,
257,38.90518544,-77.00098252,NA,DC,NA,NA,NA,1163, Abbey Place Northeast, Near Northeast, Washington, District of Columbia,20002, United States of America,,,
258,40.76987919,-73.95124875,NA,NYC,NA,NA,NA,1440, York Avenue, Upper East Side, Manhattan, New York County, New York City, New York,10021, United States of America,
259,37.78432131,-122.46922,NA,SF,NA,NA,NA,California Street, Richmond District, San Francisco, San Francisco City and County, California,94121, United States of America,,,
260,40.69246576,-73.95948493,NA,NYC,NA,NA,NA,290, Willoughby Avenue, Clinton Hill, Brooklyn, Kings County, New York City, New York,11205, United States of America,
261,33.83663012,-118.3812212,NA,LA,NA,NA,NA,VIP Liquor & Market,604, Torrance Boulevard, Redondo Beach, Los Angeles County, California,90277, United States of America,,
262,40.84639657,-73.94046387,NA,NYC,NA,NA,NA,J Hood Wright Recreational Center,351, Fort Washington Avenue, Washington Heights, Manhattan, New York County, New York City, New York,10033, United States of America
263,40.87313465,-73.91662509,NA,NYC,NA,NA,NA,Baker Athletics Complex, West 218th Street, Inwood, Manhattan, New York County, New York City, New York,10034, United States of America,
264,34.06689739,-118.2453282,NA,LA,NA,NA,NA,College Street, New Chinatown, Angelino Heights, Los Angeles, Los Angeles County, California,90012, United States of America,,
265,40.75118383,-73.99902468,NA,NYC,NA,NA,NA,Morgan General Mail Facility, West 29th Street, Chelsea, Manhattan, New York County, New York City, New York,10001, United States of America,
266,38.91263083,-77.06133395,NA,DC,NA,NA,NA,1680, Avon Place Northwest, Georgetown, Washington, District of Columbia,20007, United States of America,,,
267,40.73694778,-74.00572157,NA,NYC,NA,NA,NA,Abingdon Square, West 12th Street, Chelsea, Manhattan, New York County, New York City, New York,10014, United States of America,
268,34.04658272,-118.2422416,NA,LA,NA,NA,NA,The Escondite,11601, Boyd Street, Toy District, Little Tokyo Historic District, Los Angeles, Los Angeles County, California,90013, United States of America
269,40.76767126,-73.8178526,NA,NYC,NA,NA,NA,148-05, 34th Avenue, Flushing, Queens, Queens County, New York City, New York,11354, United States of America,
270,41.97046649,-87.68396979,NA,Chicago,NA,NA,NA,4857, North Leavitt Street, West Ravenswood, Chicago, Cook County, Illinois,60625, United States of America,,
271,40.70856812,-74.01005321,NA,NYC,NA,NA,NA,Marine Midland Building,140, Broadway, Battery Park City, Manhattan, New York County, New York City, New York,10005, United States of America
272,40.71462734,-73.99658046,NA,NYC,NA,NA,NA,Confucius Plaza,40, Division Street, Chinatown, Manhattan, New York County, New York City, New York,10002, United States of America
273,33.98002755,-118.0327963,NA,LA,NA,NA,NA,Painter Avenue, East Whittier, Whittier, Los Angeles County, California,90605, United States of America,,,
274,38.89951137,-77.01550777,NA,DC,NA,NA,NA,300, Massachusetts Avenue Northwest, Chinatown, Washington, District of Columbia,20001, United States of America,,,
275,34.09276375,-118.3223547,NA,LA,NA,NA,NA,Gower Street, Little Armenia, Los Angeles, Los Angeles County, California,90038, United States of America,,,
276,34.00446681,-118.4319379,NA,LA,NA,NA,NA,LA Brakeless,11601, Venice Boulevard, Mar Vista, Los Angeles, Los Angeles County, California,90066, United States of America,
277,42.36690547,-71.05365031,NA,Boston,NA,NA,NA,Charter St Playground, Belgravia Place, Dock Square, North End, Boston, Suffolk County, Massachusetts,2113, United States of America,
278,40.68476938,-73.96756523,NA,NYC,NA,NA,NA,450, Clinton Avenue, Clinton Hill, Brooklyn, Kings County, New York City, New York,11238, United States of America,
279,40.72318045,-74.00223127,NA,NYC,NA,NA,NA,484, Broome Street, SoHo, Manhattan, New York County, New York City, New York,10012, United States of America,
280,34.00201969,-118.4812119,NA,LA,NA,NA,NA,Sermon on the Mountain Church, Hill Street, Santa Monica, Los Angeles County, California,90405, United States of America,,,
281,33.79244654,-118.372694,NA,LA,NA,NA,NA,Bayridge Road, Ranchos Palos Verdes, Los Angeles County, California,90275, United States of America,,,,
282,34.15928967,-118.3725197,NA,LA,NA,NA,NA,Huston Street, La Paco, North Hollywood, Los Angeles, Los Angeles County, California,91601, United States of America,,
283,40.61293008,-73.96510972,NA,NYC,NA,NA,NA,1478, East 9th Street, Midwood, Brooklyn, Kings County, New York City, New York,11230, United States of America,
284,38.92302199,-77.0386581,NA,DC,NA,NA,NA,1660, Euclid Street Northwest, Adams Morgan, Columbia Heights, Washington, District of Columbia,20009, United States of America,,
285,34.12873043,-118.7232423,NA,LA,NA,NA,NA,Patrick Henry Place, Agoura Hills, Los Angeles County, California,91301, United States of America,,,,
286,40.68604845,-73.97516531,NA,NYC,NA,NA,NA,109, South Elliott Place, Fort Greene, Brooklyn, Kings County, New York City, New York,11217, United States of America,
287,34.08342842,-118.3554128,NA,LA,NA,NA,NA,Sneaker Pawn,11601, Melrose Avenue, Park La Brea, Hollywood, Los Angeles, Los Angeles County, California,90069, United States of America
288,40.74889023,-73.98805905,NA,NYC,NA,NA,NA,Greeley Square, 6th Avenue, Koreatown, Manhattan, New York County, New York City, New York,10019, United States of America,
289,40.66123485,-73.93428033,NA,NYC,NA,NA,NA,499, Schenectady Avenue, Rutland Plaza, Brooklyn, Kings County, New York City, New York,11203, United States of America,
290,40.81223862,-73.93936549,NA,NYC,NA,NA,NA,25, West 132nd Street, Harlem, Manhattan, New York County, New York City, New York,10037, United States of America,
291,34.02643452,-118.7681337,NA,LA,NA,NA,NA,Meadows Court, Le Mer Private Estates, Malibu, Los Angeles County, California,90265, United States of America,,,
292,40.67973818,-73.96660983,NA,NYC,NA,NA,NA,712, Dean Street, Prospect Heights, Brooklyn, Kings County, New York City, New York,11238, United States of America,
293,40.70943924,-73.94838431,NA,NYC,NA,NA,NA,418, Lorimer Street, Williamsburg, Kings County, New York City, New York,11206, United States of America,,
294,40.76582741,-73.91085645,NA,NYC,NA,NA,NA,25-49, 42nd Street, Sunnyside Gardens, Queens County, New York City, New York,11103, United States of America,,
295,40.70823368,-73.96081264,NA,NYC,NA,NA,NA,323, Roebling Street, Williamsburg, Kings County, New York City, New York,11211, United States of America,,
296,38.9241659,-77.07313666,NA,DC,NA,NA,NA,2619, Wisconsin Avenue Northwest, Glover Park, Washington, District of Columbia,20007, United States of America,,,
297,33.98667547,-118.466761,NA,LA,NA,NA,NA,North Venice Boulevard, Venice, Los Angeles, Los Angeles County, California,90291, United States of America,,,
298,34.02850067,-118.4527635,NA,LA,NA,NA,NA,West Pico Boulevard, Santa Monica, Los Angeles County, California,90064, United States of America,,,,
299,41.94512307,-87.64415329,NA,Chicago,NA,NA,NA,561, West Stratford Place, Pine Grove, Chicago, Cook County, Illinois,60657, United States of America,,
300,40.78225553,-73.95332208,NA,NYC,NA,NA,NA,147, East 90th Street, Yorkville, Manhattan, New York County, New York City, New York,10128, United States of America,
301,34.05883861,-118.3131982,NA,LA,NA,NA,NA,South Gramercy Place, Country Club Park, Cienega, Los Angeles, Los Angeles County, California,90019, United States of America,,
302,37.77649919,-122.4423046,NA,SF,NA,NA,NA,chile pies (& ice cream),601, Baker Street, North of Panhandle, San Francisco, San Francisco City and County, California,94115, United States of America,
303,40.71323163,-73.94865572,NA,NYC,NA,NA,NA,70, Devoe Street, Williamsburg, Kings County, New York City, New York,11211, United States of America,,
304,34.08384483,-118.3927317,NA,LA,NA,NA,NA,Sierra Drive, Beverly Hills, Los Angeles County, California,90210, United States of America,,,,
305,40.83715701,-73.940476,NA,NYC,NA,NA,NA,530, West 163rd Street, Washington Heights, Manhattan, New York County, New York City, New York,10032, United States of America,
306,40.72757201,-73.98461991,NA,NYC,NA,NA,NA,95, Saint Mark's Place, East Village, Manhattan, New York County, New York City, New York,10009, United States of America,
307,34.06937336,-118.3511733,NA,LA,NA,NA,NA,Hauser Boulevard, Park La Brea, Hollywood, Los Angeles, Los Angeles County, California,90036, United States of America,,
308,40.73334243,-73.994162,NA,NYC,NA,NA,NA,24, East 11th Street, Washington Square Village, Manhattan, New York County, New York City, New York,10003, United States of America,
309,40.86446071,-73.92694241,NA,NYC,NA,NA,NA,188, Dyckman Street, Inwood, Manhattan, New York County, New York City, New York,10040, United States of America,
310,40.72920646,-74.00127804,NA,NYC,NA,NA,NA,188, Bleecker Street, Washington Square Village, Manhattan, New York County, New York City, New York,10012, United States of America,
311,40.72457353,-73.98842336,NA,NYC,NA,NA,NA,82, East 3rd Street, Alphabet City, Manhattan, New York County, New York City, New York,10003, United States of America,
312,37.76753421,-122.4218769,NA,SF,NA,NA,NA,Valencia Street Muscle,333, Valencia Street, Mission District, San Francisco, San Francisco City and County, California,94103, United States of America,
313,40.80073578,-73.9641602,NA,NYC,NA,NA,NA,Booker T Washington Playground, West 108th Street, Park West Village, Manhattan, New York County, New York City, New York,10025, United States of America,
314,40.74294695,-73.99180376,NA,NYC,NA,NA,NA,67, West 23rd Street, Flatiron, Manhattan, New York County, New York City, New York,10010, United States of America,
315,34.02578455,-118.5134112,NA,LA,NA,NA,NA,Cyclehop, San Vicente Boulevard, Santa Monica, Los Angeles County, California,90402, United States of America,,,
316,40.69155447,-73.94736059,NA,NYC,NA,NA,NA,718, DeKalb Avenue, Bedford-Stuyvesant, Brooklyn, Kings County, New York City, New York,11216, United States of America,
317,38.92805092,-77.02253881,NA,DC,NA,NA,NA,662, Columbia Road Northwest, Pleasant Plains, Columbia Heights, Washington, District of Columbia,20001, United States of America,,
318,34.18634837,-118.3712356,NA,LA,NA,NA,NA,Victory Boulevard, North Hollywood, Los Angeles, Los Angeles County, California,91606, United States of America,,,
319,40.76185944,-73.9946969,NA,NYC,NA,NA,NA,503, West 45th Street, Hell's Kitchen, Manhattan, New York County, New York City, New York,10036, United States of America,
320,34.10425279,-118.347803,NA,LA,NA,NA,NA,Hillside Avenue, Whitley Heights, Los Angeles, Los Angeles County, California,90046, United States of America,,,
321,40.73488848,-73.98542612,NA,NYC,NA,NA,NA,206, East 17th Street, East Village, Manhattan, New York County, New York City, New York,10003, United States of America,
322,40.71327644,-74.00506643,NA,NYC,NA,NA,NA,Tweed Courthouse,52, Chambers Street, Tribeca, Manhattan, New York County, New York City, New York,10007, United States of America
323,34.24724822,-118.546313,NA,LA,NA,NA,NA,Topeka Drive, Northridge, Los Angeles, Los Angeles County, California,91324, United States of America,,,
324,37.7499466,-122.4426576,NA,SF,NA,NA,NA,Grand View Avenue, Noe Valley, San Francisco, San Francisco City and County, California,94114, United States of America,,,
325,40.73113095,-73.98295127,NA,NYC,NA,NA,NA,231, 1st Avenue, East Village, Manhattan, New York County, New York City, New York,10003, United States of America,
326,40.67201749,-73.98530534,NA,NYC,NA,NA,NA,310, 5th Street, Park Slope, Brooklyn, Kings County, New York City, New York,11215, United States of America,
327,37.77695515,-122.4413025,NA,SF,NA,NA,NA,USPS, Baker Street, North of Panhandle, San Francisco, San Francisco City and County, California,94115, United States of America,,
328,40.85304223,-73.93554636,NA,NYC,NA,NA,NA,90, Bennett Avenue, Washington Heights, Manhattan, New York County, New York City, New York,10033, United States of America,
329,34.09651225,-118.3690574,NA,LA,NA,NA,NA,North Harper Avenue, West Hollywood, Los Angeles County, California,90046, United States of America,,,,
330,34.09372851,-118.3356488,NA,LA,NA,NA,NA,North Cherokee Avenue, Hollywood, Los Angeles, Los Angeles County, California,90028, United States of America,,,
331,40.76298211,-73.98676335,NA,NYC,NA,NA,NA,316, West 51st Street, Midtown West, Manhattan, New York County, New York City, New York,10019, United States of America,
332,40.72206955,-73.95697356,NA,NYC,NA,NA,NA,94, North 13th Street, Greenpoint, Kings County, New York City, New York,11249, United States of America,,
333,40.71064395,-73.96496979,NA,NYC,NA,NA,NA,95, Broadway, Williamsburg, Kings County, New York City, New York,11249, United States of America,,
334,34.04466292,-118.2367429,NA,LA,NA,NA,NA,801, East 4th Place, Arts District, Little Tokyo Historic District, Los Angeles, Los Angeles County, California,90013, United States of America,
335,34.16223911,-118.4305179,NA,LA,NA,NA,NA,Buffalo Avenue, Sherman Oaks, Los Angeles, Los Angeles County, California,91401, United States of America,,,
336,40.73400813,-73.86805351,NA,NYC,NA,NA,NA,LongHorn Steakhouse, 92-30, 59th Avenue, Elmhurst, Queens County, New York City, New York,11373, United States of America,
337,40.70645419,-73.90578234,NA,NYC,NA,NA,NA,658, Fairview Avenue, Ridgewood, Queens County, New York City, New York,11385, United States of America,,
338,34.15021443,-118.4322487,NA,LA,NA,NA,NA,Moorpark Street, Sherman Oaks, Los Angeles, Los Angeles County, California,91423, United States of America,,,
339,40.67716819,-74.00410997,NA,NYC,NA,NA,NA,749, Hicks Street, Red Hook, Kings County, New York City, New York,11231, United States of America,,
340,37.77413293,-122.4002213,NA,SF,NA,NA,NA,Clear Channel Outdoor, Townsend Street, Mission Creek, San Francisco, San Francisco City and County, California,94107, United States of America,,
341,41.84770774,-87.61862253,NA,Chicago,NA,NA,NA,2501-2523, South Calumet Avenue, Douglas, Chicago, Cook County, Illinois,60616, United States of America,,
342,40.72137549,-73.98376827,NA,NYC,NA,NA,NA,297, East Houston Street, Alphabet City, Manhattan, New York County, New York City, New York,10002, United States of America,
343,40.68350577,-73.93224045,NA,NYC,NA,NA,NA,328, Stuyvesant Avenue, Bedford-Stuyvesant, Brooklyn, Kings County, New York City, New York,11233, United States of America,
344,34.09778392,-118.3257976,NA,LA,NA,NA,NA,Sunset and Vine Tower, West Sunset Boulevard, Hollywood, Los Angeles, Los Angeles County, California,90028, United States of America,,
345,34.0193767,-118.4917326,NA,LA,NA,NA,NA,LACMTA, Santa Monica Boulevard, Santa Monica, Los Angeles County, California,90404, United States of America,,,
346,38.93096654,-77.0375166,NA,DC,NA,NA,NA,1627, Lamont Street Northwest, Mount Pleasant, Columbia Heights, Washington, District of Columbia,20010, United States of America,,
347,34.06419988,-118.4499134,NA,LA,NA,NA,NA,Magnolia Court,765, Weyburn Place, Westwood Village, Westwood, Los Angeles, Los Angeles County, California,90024, United States of America
348,40.72646796,-73.98378826,NA,NYC,NA,NA,NA,117, Avenue A, Alphabet City, Manhattan, New York County, New York City, New York,10009, United States of America,
349,42.3512408,-71.07382934,NA,Boston,NA,NA,NA,Hubway - Boylston St / Berkeley St, Boylston Street, Chinatown, Back Bay, Boston, Suffolk County, Massachusetts,2116, United States of America,
350,34.69539647,-118.1524784,NA,LA,NA,NA,NA,West Lumber Street, Lancaster, Los Angeles County, California,93534, United States of America,,,,
351,34.1015917,-118.229907,NA,LA,NA,NA,NA,Kilbourn Street, Mount Washington, Highland Park, Los Angeles, Los Angeles County, California,90065, United States of America,,
352,40.68167625,-73.94629148,NA,NYC,NA,NA,NA,Junior High School 258,141, Macon Street, BEDFORD STUYVESANT/ EXPANDED STUYVEVSANT HEIGHTS HISTORIC DISTRICT, Brooklyn, Kings County, New York City, New York,11216, United States of America
353,38.88006682,-77.00582465,NA,DC,NA,NA,NA,Axiom at Capitol Yards,100, I Street Southeast, Near Southeast, Capitol Hill, Washington, District of Columbia,20003, United States of America,
354,34.03702651,-118.4855315,NA,LA,NA,NA,NA,22nd Court, Santa Monica, Los Angeles County, California,90403, United States of America,,,,
355,40.67852152,-73.94376949,NA,NYC,NA,NA,NA,1389, Atlantic Avenue, Bedford-Stuyvesant, Brooklyn, Kings County, New York City, New York,11216, United States of America,
356,40.68041901,-73.9477274,NA,NYC,NA,NA,NA,26, Verona Place, Bedford-Stuyvesant, Brooklyn, Kings County, New York City, New York,11216, United States of America,
357,40.72735654,-73.98983123,NA,NYC,NA,NA,NA,225, East 5th Street, East Village, Manhattan, New York County, New York City, New York,10003, United States of America,
358,40.79487009,-73.96371543,NA,NYC,NA,NA,NA,4, Manhattan Avenue, Park West Village, Manhattan, New York County, New York City, New York,10025, United States of America,
359,37.72566578,-122.4186315,NA,SF,NA,NA,NA,Cambridge Street, San Francisco, San Francisco City and County, California,94134, United States of America,,,,
360,34.02883467,-118.4430799,NA,LA,NA,NA,NA,Gateway Boulevard, Sawtelle, Mar Vista, Los Angeles, Los Angeles County, California,90064, United States of America,,
361,40.79530763,-73.97603539,NA,NYC,NA,NA,NA,224, Riverside Drive, Upper West Side, Manhattan, New York County, New York City, New York,10025, United States of America,
362,34.09299841,-118.3662103,NA,LA,NA,NA,NA,North Crescent Heights Boulevard, West Hollywood, Los Angeles County, California,90046, United States of America,,,,
363,38.91113459,-77.02239695,NA,DC,NA,NA,NA,Dacha Beer Garden, Q Street Northwest, Chinatown, Washington, District of Columbia,20001, United States of America,,,
364,34.10467512,-118.3417326,NA,LA,NA,NA,NA,North Sycamore Avenue, Whitley Heights, Los Angeles, Los Angeles County, California,90068, United States of America,,,
365,34.15486436,-118.4035645,NA,LA,NA,NA,NA,Hortense Street, Studio City, Valley Village, Los Angeles, Los Angeles County, California,91604, United States of America,,
366,38.90801638,-77.03884192,NA,DC,NA,NA,NA,1708, Massachusetts Avenue Northwest, Dupont Circle, Washington, District of Columbia,20036, United States of America,,,
367,40.7612351,-73.98828394,NA,NYC,NA,NA,NA,322, West 48th Street, Clinton, Manhattan, New York County, New York City, New York,10036, United States of America,
368,34.02843893,-117.7602949,NA,LA,NA,NA,NA,Rio Rancho Road, Pomona, Los Angeles County, California,91766, United States of America,,,,
369,40.73607187,-73.99027265,NA,NYC,NA,NA,NA,Union Square Park, East 15th Street, Flatiron, Manhattan, New York County, New York City, New York,10003, United States of America,
370,34.12246487,-118.3842761,NA,LA,NA,NA,NA,Parking for Trail, Valley Village, Los Angeles, Los Angeles County, California,91604, United States of America,,,
371,40.71590204,-73.99058859,NA,NYC,NA,NA,NA,Public School 42,71, Hester Street, Lower East Side, Manhattan, New York County, New York City, New York,10002, United States of America
372,40.76580575,-73.92043494,NA,NYC,NA,NA,NA,30-16, 33rd Street, Astoria, Queens County, New York City, New York,11102, United States of America,,
373,40.68591135,-74.00164256,NA,NYC,NA,NA,NA,60 Tiffany Place,60, Tiffany Place, Columbia Street Waterfront District, Kings County, New York City, New York,11231, United States of America,
374,40.75160346,-73.97031763,NA,NYC,NA,NA,NA,The Delegate,301, East 45th Street, Tudor City, Manhattan, New York County, New York City, New York,10017, United States of America
375,40.71034873,-73.95331844,NA,NYC,NA,NA,NA,384, Keap Street, Williamsburg, Kings County, New York City, New York,11211, United States of America,,
376,34.18785441,-118.4430747,NA,LA,NA,NA,NA,Gilmore Street, North Sherman Way, Van Nuys, Los Angeles, Los Angeles County, California,91411, United States of America,,
377,37.75463183,-122.452759,NA,SF,NA,NA,NA,KBHK-TV (San Francisco), La Avanzada Street, Cole Valley, San Francisco, San Francisco City and County, California,94131, United States of America,,
378,40.82684948,-73.9465772,NA,NYC,NA,NA,NA,1768, Amsterdam Avenue, Hamilton Heights, Manhattan, New York County, New York City, New York,10031, United States of America,
379,34.17199006,-118.6453792,NA,LA,NA,NA,NA,Valley Circle Boulevard, West Hills, Los Angeles, Los Angeles County, California,91307, United States of America,,,
380,38.91534561,-77.01738502,NA,DC,NA,NA,NA,1832, 4th Street Northwest, Le Droit Park, Logan Circle, Washington, District of Columbia,20059, United States of America,,
381,34.09972019,-118.1079528,NA,LA,NA,NA,NA,Broadway, San Gabriel, Los Angeles County, California,91776, United States of America,,,,
382,40.68364279,-73.92638135,NA,NYC,NA,NA,NA,210, Patchen Avenue, Bushwick, Brooklyn, Kings County, New York City, New York,11233, United States of America,
383,40.7125087,-73.96243362,NA,NYC,NA,NA,NA,331, Bedford Avenue, Williamsburg, Kings County, New York City, New York,11211, United States of America,,
384,40.70465526,-73.9352965,NA,NYC,NA,NA,NA,229, Moore Street, Bushwick, Kings County, New York City, New York,11206, United States of America,,
385,37.80356512,-122.4133781,NA,SF,NA,NA,NA,Wash This!, Chestnut Street, Russian Hill, San Francisco, San Francisco City and County, California,94109, United States of America,,
386,34.06737197,-118.2691528,NA,LA,NA,NA,NA,North Mountain View Avenue, Echo Park, Angelino Heights, Los Angeles, Los Angeles County, California,90026, United States of America,,
387,34.09537139,-118.3507721,NA,LA,NA,NA,NA,North Martel Avenue, West Hollywood, Los Angeles County, California,90046, United States of America,,,,
388,34.15314485,-118.3430091,NA,LA,NA,NA,NA,West Alameda Avenue, Burbank, Los Angeles County, California,91505, United States of America,,,,
389,40.72883586,-73.99920795,NA,NYC,NA,NA,NA,214, Thompson Street, University Village, Manhattan, New York County, New York City, New York,10012, United States of America,
390,34.21884782,-118.3609605,NA,LA,NA,NA,NA,Cantara Street, Sun Valley, North Hollywood, Los Angeles, Los Angeles County, California,91352, United States of America,,
391,34.14925853,-118.1456279,NA,LA,NA,NA,NA,Walnut Street, Pasadena, Los Angeles County, California,91102, United States of America,,,,
392,40.81776721,-73.95752579,NA,NYC,NA,NA,NA,Columbia University, West 131st Street, Manhattanville, Manhattan, New York County, New York City, New York,10027, United States of America,
393,40.74901633,-73.94719723,NA,NYC,NA,NA,NA,44-14, 21st Street, Long Island City, Queens County, New York City, New York,11101, United States of America,,
394,37.77456069,-122.4192004,NA,SF,NA,NA,NA,San Francisco Honda,10, South Van Ness Avenue, West SoMa, San Francisco, San Francisco City and County, California,94103, United States of America,
395,34.13828947,-118.3866988,NA,LA,NA,NA,NA,Sunshine Terrace, Studio City, Valley Village, Los Angeles, Los Angeles County, California,91604, United States of America,,
396,38.88145461,-77.01692872,NA,DC,NA,NA,NA,301, G Street Southwest, Southwest/Waterfront, Penn Quarter, Washington, District of Columbia,20024, United States of America,,
397,40.82514013,-73.95077021,NA,NYC,NA,NA,NA,531, West 143rd Street, Hamilton Heights, Manhattan, New York County, New York City, New York,10031, United States of America,
398,41.89959764,-87.67695526,NA,Chicago,NA,NA,NA,1001, North Damen Avenue, Ukrainian Village, Near North Side, Chicago, Cook County, Illinois,60625, United States of America,
399,40.75634254,-73.99185591,NA,NYC,NA,NA,NA,314, West 40th Street, Koreatown, Manhattan, New York County, New York City, New York,10018, United States of America,
400,40.65018188,-73.96362406,NA,NYC,NA,NA,NA,50, East 18th Street, Flatbush, Brooklyn, Kings County, New York City, New York,11226, United States of America,
401,40.73518615,-74.00225044,NA,NYC,NA,NA,NA,25, Charles Street, Greenwich Village, Manhattan, New York County, New York City, New York,10014, United States of America,
402,40.70580162,-73.96794982,NA,NYC,NA,NA,NA,Roberto Clemente Ballfield, Division Avenue, Brooklyn Navy Yard, Kings County, New York City, New York,11211, United States of America,,
403,40.68480158,-73.92672462,NA,NYC,NA,NA,NA,186, Patchen Avenue, Bushwick, Brooklyn, Kings County, New York City, New York,11233, United States of America,
404,34.08784352,-118.3550475,NA,LA,NA,NA,NA,North Curson Avenue, Park La Brea, Hollywood, Los Angeles, Los Angeles County, California,90046, United States of America,,
405,40.77298705,-73.92744618,NA,NYC,NA,NA,NA,18-02, 26th Road, Astoria, Queens County, New York City, New York,11102, United States of America,,
406,40.69659877,-73.93071773,NA,NYC,NA,NA,NA,711, Bushwick Avenue, Bushwick, Kings County, New York City, New York,11221, United States of America,,
407,34.07399563,-118.3998153,NA,LA,NA,NA,NA,North Rexford Drive, Beverly Hills, Los Angeles County, California,90210, United States of America,,,,
408,40.76420172,-73.99132516,NA,NYC,NA,NA,NA,450, West 50th Street, Midtown West, Manhattan, New York County, New York City, New York,10019, United States of America,
409,42.36582858,-71.03528527,NA,Boston,NA,NA,NA,Samuel Adams School, Webster Street, Jeffries Point, East Boston, Boston, Suffolk County, Massachusetts,2128, United States of America,
410,34.19219441,-118.3991289,NA,LA,NA,NA,NA,Archwood Street, Hewitt, North Hollywood, Los Angeles, Los Angeles County, California,91606, United States of America,,
411,41.782476,-87.61196112,NA,Chicago,NA,NA,NA,6149, South Rhodes Avenue, Park Manor, Chicago, Cook County, Illinois,60637, United States of America,,
412,34.06795325,-118.2788213,NA,LA,NA,NA,NA,South Benton Way, Angelino Heights, Los Angeles, Los Angeles County, California,90057, United States of America,,,
413,40.65251487,-73.96324802,NA,NYC,NA,NA,NA,57, Crooke Avenue, Flatbush, Brooklyn, Kings County, New York City, New York,11226, United States of America,
414,34.15224893,-118.6211101,NA,LA,NA,NA,NA,Cass Avenue, Woodland Hills, Los Angeles, Los Angeles County, California,91364, United States of America,,,
415,41.93431381,-87.69589864,NA,Chicago,NA,NA,NA,2909, North Fairfield Avenue, Maplewood, Chicago, Cook County, Illinois,60618, United States of America,,
416,34.16115875,-118.4703475,NA,LA,NA,NA,NA,Ventura Freeway, Sherman Oaks, Los Angeles, Los Angeles County, California, 91403-1530, United States of America,,,
417,40.69297186,-73.92447025,NA,NYC,NA,NA,NA,920, Bushwick Avenue, Bushwick, Brooklyn, Kings County, New York City, New York,11221, United States of America,
418,37.74260516,-122.4289086,NA,SF,NA,NA,NA,1654A, Sanchez Street, Noe Valley, San Francisco, San Francisco City and County, California,94131, United States of America,,
419,40.70050021,-73.91815592,NA,NYC,NA,NA,NA,330, Harman Street, Kings County, New York City, New York,11237, United States of America,,,
420,40.75744731,-73.82141808,NA,NYC,NA,NA,NA,143-16, Franklin Avenue, Flushing, Queens, Queens County, New York City, New York,11355, United States of America,
421,34.08983706,-118.3619908,NA,LA,NA,NA,NA,North Fairfax Avenue, West Hollywood, Los Angeles County, California,90046, United States of America,,,,
422,37.76332743,-122.5017127,NA,SF,NA,NA,NA,1294, 42nd Avenue, Sunset District, San Francisco, San Francisco City and County, California,94122, United States of America,,
423,40.76593343,-73.98120408,NA,NYC,NA,NA,NA,220, West 57th Street, Diamond District, Manhattan, New York County, New York City, New York,10019, United States of America,
424,42.315062,-71.09757186,NA,Boston,NA,NA,NA,Columbus Ave @ Weld  Ave, Columbus Avenue, Roxbury Crossing, Roxbury, Boston, Suffolk County, Massachusetts,2119, United States of America,
425,40.71389747,-74.00620893,NA,NYC,NA,NA,NA,Duane Reade, Chambers Street, Tribeca, Manhattan, New York County, New York City, New York,10007, United States of America,
426,41.89342698,-87.66776136,NA,Chicago,NA,NA,NA,1612, West Erie Street, Ukrainian Village, Near North Side, Chicago, Cook County, Illinois,60612, United States of America,
427,40.7199731,-73.95945312,NA,NYC,NA,NA,NA,93, North 8th Street, Williamsburg, Kings County, New York City, New York,11249, United States of America,,
428,37.78692908,-122.4250486,NA,SF,NA,NA,NA,hotel majestic, Gough Street, Japantown, San Francisco, San Francisco City and County, California,94123, United States of America,,
429,40.68367724,-73.9611031,NA,NYC,NA,NA,NA,70, Downing Street, Adelphi, Brooklyn, Kings County, New York City, New York,11238, United States of America,
430,40.68636036,-73.80692366,NA,NYC,NA,NA,NA,109-31, Van Wyck Expressway East, Jamaica, Queens County, New York City, New York,11435, United States of America,,
431,40.7155847,-73.94880717,NA,NYC,NA,NA,NA,71, Skillman Avenue, Williamsburg, Kings County, New York City, New York,11211, United States of America,,
432,40.77646496,-73.97065885,NA,NYC,NA,NA,NA,The Gill, Ramble Rustic Bridge, Upper West Side, Manhattan, New York County, New York City, New York,10024, United States of America,
433,34.08265811,-118.3959142,NA,LA,NA,NA,NA,Arden Drive, Beverly Hills, Los Angeles County, California,90210, United States of America,,,,
434,37.79183524,-122.4190525,NA,SF,NA,NA,NA,Larkin Corner Market,1496, Larkin Street, Nob Hill, San Francisco, San Francisco City and County, California,94109, United States of America,
435,34.06585025,-118.3508357,NA,LA,NA,NA,NA,Hauser Boulevard, Park La Brea, Hollywood, Los Angeles, Los Angeles County, California,90036, United States of America,,
436,40.72563259,-73.72698378,NA,NYC,NA,NA,NA,92-23, 241st Street, Queens Village, Queens County, New York City, New York,11426, United States of America,,
437,40.67498311,-73.95953077,NA,NYC,NA,NA,NA,CenterLight Health System,727, Classon Avenue, Adelphi, Brooklyn, Kings County, New York City, New York,11238, United States of America
438,37.79022397,-122.4032203,NA,SF,NA,NA,NA,Hallidie Building, 130-150, Sutter Street, Financial District, San Francisco, San Francisco City and County, California,94108, United States of America,
439,38.93136245,-77.02393178,NA,DC,NA,NA,NA,Mohamed's Barber Shop,3310, Georgia Avenue Northwest, Columbia Heights, Washington, District of Columbia,20012, United States of America,,
440,34.03244258,-118.2888231,NA,LA,NA,NA,NA,Ellendale Place, Saint James Park, Los Angeles, Los Angeles County, California,90007, United States of America,,,
441,34.03502852,-118.4298998,NA,LA,NA,NA,NA,Greenfield Avenue, Palms, Los Angeles, Los Angeles County, California,90064, United States of America,,,
442,40.70043647,-73.93909096,NA,NYC,NA,NA,NA,339, Ellery Street, Bedford-Stuyvesant, Kings County, New York City, New York,11206, United States of America,,
443,40.66721191,-73.93861939,NA,NYC,NA,NA,NA,1508, President Street, Crown Heights, Brooklyn, Kings County, New York City, New York,11213, United States of America,
444,40.73694012,-74.00346957,NA,NYC,NA,NA,NA,39 1/2, Bank Street, Greenwich Village, Manhattan, New York County, New York City, New York,10014, United States of America,
445,40.74138018,-73.99875285,NA,NYC,NA,NA,NA,218, West 18th Street, Chelsea, Manhattan, New York County, New York City, New York,10011, United States of America,
446,34.09886935,-118.3635489,NA,LA,NA,NA,NA,North Laurel Avenue, West Hollywood, Los Angeles County, California,90046, United States of America,,,,
447,40.81631107,-73.9393301,NA,NYC,NA,NA,NA,559, Malcolm X Boulevard, Harlem, Manhattan, New York County, New York City, New York,10030, United States of America,
448,34.0857891,-118.3444746,NA,LA,NA,NA,NA,Kor Gym,11601, North La Brea Avenue, Hollywood, Los Angeles, Los Angeles County, California,90036, United States of America,
449,40.75152889,-73.99681221,NA,NYC,NA,NA,NA,301, West 31st Street, Koreatown, Manhattan, New York County, New York City, New York,10001, United States of America,
450,33.99727763,-118.4500479,NA,LA,NA,NA,NA,Lucille Avenue, Mar Vista, Los Angeles, Los Angeles County, California,90291, United States of America,,,
451,40.74417387,-73.94822944,NA,NYC,NA,NA,NA,46-26, Crane Street, Long Island City, Queens County, New York City, New York,11101, United States of America,,
452,37.79945662,-122.4281005,NA,SF,NA,NA,NA,Filbert Street, Cow Hollow, San Francisco, San Francisco City and County, California,94123, United States of America,,,
453,40.68371262,-73.96461481,NA,NYC,NA,NA,NA,489, Washington Avenue, Clinton Hill, Brooklyn, Kings County, New York City, New York,11238, United States of America,
454,40.6908997,-73.95333232,NA,NYC,NA,NA,NA,590, DeKalb Avenue, Clinton Hill, Brooklyn, Kings County, New York City, New York,11205, United States of America,
455,40.69220984,-73.93822869,NA,NYC,NA,NA,NA,409A, Kosciusko Street, Bedford-Stuyvesant, Brooklyn, Kings County, New York City, New York,11221, United States of America,
456,34.11517573,-118.1712685,NA,LA,NA,NA,NA,Lohman Lane, South Pasadena, Los Angeles County, California,91030, United States of America,,,,
457,34.08194582,-118.319309,NA,LA,NA,NA,NA,Clinton Street, Hancock Park, Little Armenia, Los Angeles, Los Angeles County, California,90004, United States of America,,
458,40.77537444,-73.94959044,NA,NYC,NA,NA,NA,413, East 84th Street, Yorkville, Manhattan, New York County, New York City, New York,10028, United States of America,
459,40.70928784,-74.01093921,NA,NYC,NA,NA,NA,Zuccotti Park, Cedar Street, Battery Park City, Manhattan, New York County, New York City, New York,10006, United States of America,
460,40.69561557,-73.95574834,NA,NYC,NA,NA,NA,829, Bedford Avenue, Clinton Hill, Brooklyn, Kings County, New York City, New York,11205, United States of America,
461,40.74610922,-74.00013644,NA,NYC,NA,NA,NA,SVA Theater,333, West 23rd Street, Chelsea, Manhattan, New York County, New York City, New York,10011, United States of America
462,40.76236329,-73.99827293,NA,NYC,NA,NA,NA,UPS, West 44th Street, Clinton, Manhattan, New York County, New York City, New York,10036, United States of America,
463,38.92398535,-77.00158755,NA,DC,NA,NA,NA,315, Evarts Street Northeast, Edgewood, University Heights, Washington, District of Columbia,20002, United States of America,,
464,41.91485609,-87.70615892,NA,Chicago,NA,NA,NA,3122, West Moffat Street, Simons, Chicago, Cook County, Illinois,60647, United States of America,,
465,34.05908002,-118.2998816,NA,LA,NA,NA,NA,South Normandie Avenue, Koreatown, Saint James Park, Los Angeles, Los Angeles County, California,90005, United States of America,,
466,34.10165344,-118.3480207,NA,LA,NA,NA,NA,Hollywood Boulevard, Whitley Heights, Los Angeles, Los Angeles County, California,90028, United States of America,,,
467,34.07152341,-118.3688556,NA,LA,NA,NA,NA,Blackburn Avenue, Carthay Circle, Hollywood, Los Angeles, Los Angeles County, California,90048, United States of America,,
468,34.14804261,-118.2345267,NA,LA,NA,NA,NA,Wilson Avenue, Glendale, Los Angeles County, California,91206, United States of America,,,,
469,34.06714074,-118.2436675,NA,LA,NA,NA,NA,Figueroa Terrace, New Chinatown, Angelino Heights, Los Angeles, Los Angeles County, California,90012, United States of America,,
470,40.7282285,-73.98558078,NA,NYC,NA,NA,NA,346, East 9th Street, East Village, Manhattan, New York County, New York City, New York,10003, United States of America,
471,34.09978322,-118.3461367,NA,LA,NA,NA,NA,Hawthorn Avenue, Whitley Heights, Los Angeles, Los Angeles County, California,90046, United States of America,,,
472,40.69734734,-73.93270139,NA,NYC,NA,NA,NA,1193, Myrtle Avenue, Clinton Hill, Brooklyn, Kings County, New York City, New York,11206, United States of America,
473,40.64025101,-74.01734529,NA,NYC,NA,NA,NA,437, 60th Street, Bay Ridge, Kings County, New York City, New York,11220, United States of America,,
474,40.73395768,-73.99498013,NA,NYC,NA,NA,NA,39, 5th Avenue, Washington Square Village, Manhattan, New York County, New York City, New York,10003, United States of America,
475,41.89629724,-87.63293169,NA,Chicago,NA,NA,NA,LaSalle Center,770, North La Salle Boulevard, Cabrini-Green, Near North Side, Chicago, Cook County, Illinois,60610, United States of America
476,40.71459367,-73.96170627,NA,NYC,NA,NA,NA,160, Grand Street, Williamsburg, Kings County, New York City, New York,11249, United States of America,,
477,34.00258325,-118.4376002,NA,LA,NA,NA,NA,Stewart Avenue, Mar Vista, Los Angeles, Los Angeles County, California,90066, United States of America,,,
478,40.67412971,-73.964974,NA,NYC,NA,NA,NA,395, Saint Johns Place, Prospect Heights, Brooklyn, Kings County, New York City, New York,11238, United States of America,
479,40.74157172,-73.99295198,NA,NYC,NA,NA,NA,53, West 21st Street, Chelsea, Manhattan, New York County, New York City, New York,10010, United States of America,
480,41.93017122,-87.71884138,NA,Chicago,NA,NA,NA,2700, North Monticello Avenue, Beat 2524, Chicago, Cook County, Illinois,60647, United States of America,,
481,40.59729661,-74.07132597,NA,NYC,NA,NA,NA,90, Sand Lane, Arrochar, Todt Hill, Richmond County, New York City, New York,10305, United States of America,
482,40.70777754,-73.9488362,NA,NYC,NA,NA,NA,39, Meserole Street, Williamsburg, Kings County, New York City, New York,11206, United States of America,,
483,40.76072633,-73.9220251,NA,NYC,NA,NA,NA,34-19, Broadway, Sunnyside Gardens, Queens County, New York City, New York,11106, United States of America,,
484,40.69093309,-73.96507275,NA,NYC,NA,NA,NA,Pratt Institute Library, Hall Street, Clinton Hill, Brooklyn, Kings County, New York City, New York,11205, United States of America,
485,40.67061056,-73.93150926,NA,NYC,NA,NA,NA,1415, Saint Johns Place, Eastern Parkway, Brooklyn, Kings County, New York City, New York,11213, United States of America,
486,40.76243776,-73.99137128,NA,NYC,NA,NA,NA,424, West 48th Street, Clinton, Manhattan, New York County, New York City, New York,10036, United States of America,
487,37.78840393,-122.41255,NA,SF,NA,NA,NA,Le Colonial,20, Cosmo Place, Nob Hill, San Francisco, San Francisco City and County, California,94109, United States of America,
488,41.97798897,-87.74852596,NA,Chicago,NA,NA,NA,5300, North Cicero Avenue, Montrose, Chicago, Cook County, Illinois,60630, United States of America,,
489,40.74532788,-73.98853997,NA,NYC,NA,NA,NA,17, West 28th Street, Penn Station South, Manhattan, New York County, New York City, New York,10001, United States of America,
490,37.77238379,-122.4524908,NA,SF,NA,NA,NA,Shrader & Hayes, Shrader Street, Haight-Ashbury, San Francisco, San Francisco City and County, California,94117, United States of America,,
491,40.75910369,-73.99139266,NA,NYC,NA,NA,NA,McCaffrey Playground, West 43rd Street, Hell's Kitchen, Manhattan, New York County, New York City, New York,10036, United States of America,
492,34.16992763,-118.1659999,NA,LA,NA,NA,NA,North Arroyo Boulevard, Pasadena, Los Angeles County, California,91103, United States of America,,,,
493,37.80333071,-122.439625,NA,SF,NA,NA,NA,Mallorca Way, Marina District, San Francisco, San Francisco City and County, California,94123, United States of America,,,
494,40.81497104,-73.94780836,NA,NYC,NA,NA,NA,2475, Frederick Douglass Boulevard, Hamilton Heights, Manhattan, New York County, New York City, New York,10027, United States of America,
495,40.69402347,-73.99353564,NA,NYC,NA,NA,NA,123, Remsen Street, Brooklyn Heights, Kings County, New York City, New York,11201, United States of America,,
496,40.72052569,-73.9855549,NA,NYC,NA,NA,NA,Lower East Side Preparatory High School,145, Stanton Street, Lower East Side, Manhattan, New York County, New York City, New York,10002, United States of America
497,34.10319524,-118.3547518,NA,LA,NA,NA,NA,North Curson Avenue, Whitley Heights, Los Angeles, Los Angeles County, California,90046, United States of America,,,
498,33.83985344,-118.3820347,NA,LA,NA,NA,NA,Garnet Street, Redondo Beach, Los Angeles County, California,90277, United States of America,,,,
499,34.03802024,-118.47408,NA,LA,NA,NA,NA,Kim and Kristine Halverson, Realtors,3130, Wilshire Boulevard, Santa Monica, Los Angeles County, California,90403, United States of America,
500,40.64786221,-73.96063712,NA,NYC,NA,NA,NA,622, Ocean Avenue, Flatbush, Brooklyn, Kings County, New York City, New York,11226, United States of America,
501,34.17943819,-118.4105028,NA,LA,NA,NA,NA,Oxnard Street, Garnsey, Valley Village, Los Angeles, Los Angeles County, California,91411, United States of America,,
502,40.7268116,-73.98400893,NA,NYC,NA,NA,NA,120, Saint Mark's Place, East Village, Manhattan, New York County, New York City, New York,10009, United States of America,
503,42.30877911,-71.05104588,NA,Boston,NA,NA,NA,Denny Street, Savin Hill, South Boston, Boston, Suffolk County, Massachusetts,2125, United States of America,,
504,40.70868599,-74.00684576,NA,NYC,NA,NA,NA,110 William Street,110, William Street, Southbridge Towers, Manhattan, New York County, New York City, New York,10038, United States of America
505,40.68722543,-73.95477989,NA,NYC,NA,NA,NA,1098, Bedford Avenue, Clinton Hill, Brooklyn, Kings County, New York City, New York,11216, United States of America,
506,34.15311889,-118.7621196,NA,LA,NA,NA,NA,Clee Court, Agoura Hills, Los Angeles County, California,91301, United States of America,,,,
507,34.00786613,-118.4681293,NA,LA,NA,NA,NA,Ashland Avenue, Santa Monica, Los Angeles County, California,90405, United States of America,,,,
508,34.19261712,-118.1367941,NA,LA,NA,NA,NA,Saint James Place, Altadena, Los Angeles County, California,91001, United States of America,,,,
509,42.368614,-71.03764261,NA,Boston,NA,NA,NA,Sumner St @ Orleans St, Sumner Street, Jeffries Point, East Boston, Boston, Suffolk County, Massachusetts,2109, United States of America,
510,40.79720054,-73.97231324,NA,NYC,NA,NA,NA,300, West 99th Street, Park West Village, Manhattan, New York County, New York City, New York,10025, United States of America,
511,33.9199744,-118.4206253,NA,LA,NA,NA,NA,Whiting Street, El Segundo, Los Angeles County, California,90245, United States of America,,,,
512,34.0369648,-118.512742,NA,LA,NA,NA,NA,Amalfi Drive, Pacific Palisades, Riviera, Los Angeles, Los Angeles County, California,90272, United States of America,,
513,38.898388,-77.04736354,NA,DC,NA,NA,NA,Monroe Hall,2115, G Street Northwest, Foggy Bottom, Washington, District of Columbia,20037, United States of America,,
514,37.75114724,-122.4255647,NA,SF,NA,NA,NA,14, Jersey Street, Noe Valley, San Francisco, San Francisco City and County, California,94114, United States of America,,
515,34.38225273,-118.549926,NA,LA,NA,NA,NA,Avenida Rondel, Newhall, Santa Clarita, Los Angeles County, California,91355, United States of America,,,
516,34.04926518,-118.2515005,NA,LA,NA,NA,NA,444, South Hill Street, Financial District, Bunker Hill, Los Angeles, Los Angeles County, California,90013, United States of America,
517,34.20785007,-118.6232445,NA,LA,NA,NA,NA,Fallbrook Avenue, West Hills, Los Angeles, Los Angeles County, California,91304, United States of America,,,
518,42.35124773,-71.08697023,NA,Boston,NA,NA,NA,New England College of Optometry, Beacon Street, Riverway, Back Bay, Boston, Suffolk County, Massachusetts,2116, United States of America,
519,40.80387374,-73.96095546,NA,NYC,NA,NA,NA,401, West 113th Street, Morningside Heights, Manhattan, New York County, New York City, New York,10025, United States of America,
520,40.71602241,-73.99292686,NA,NYC,NA,NA,NA,50, Eldridge Street, Lower East Side, Manhattan, New York County, New York City, New York,10002, United States of America,
521,34.16902176,-118.17516,NA,LA,NA,NA,NA,Banyan Street, Pasadena, Los Angeles County, California,91103, United States of America,,,,
522,34.05731683,-118.2524898,NA,LA,NA,NA,NA,Figueroa Street, Bunker Hill, Los Angeles, Los Angeles County, California, 90012-2410, United States of America,,,
523,34.12820319,-118.2176149,NA,LA,NA,NA,NA,Corliss Street, Eagle Rock, Highland Park, Los Angeles, Los Angeles County, California,90041, United States of America,,
524,38.92199238,-77.04750977,NA,DC,NA,NA,NA,2444, 20th Street Northwest, Adams Morgan, Woodley Park, Washington, District of Columbia,20009, United States of America,,
525,34.01804694,-118.4843974,NA,LA,NA,NA,NA,11th Street, Santa Monica, Los Angeles County, California,90405, United States of America,,,,
526,33.98817372,-118.4604527,NA,LA,NA,NA,NA,Abbot Kinney Boulevard, Venice, Los Angeles, Los Angeles County, California,90291, United States of America,,,
527,40.74957179,-74.00027972,NA,NYC,NA,NA,NA,Public School 33,303, 9th Avenue, Chelsea, Manhattan, New York County, New York City, New York,10001, United States of America
528,34.14712286,-118.4715928,NA,LA,NA,NA,NA,Sepulveda Boulevard, Sherman Oaks, Los Angeles, Los Angeles County, California,91345, United States of America,,,
529,40.68724762,-73.93068293,NA,NYC,NA,NA,NA,659, Madison Street, Bedford-Stuyvesant, Brooklyn, Kings County, New York City, New York,11221, United States of America,
530,40.79966888,-73.96251183,NA,NYC,NA,NA,NA,949, Columbus Avenue, Park West Village, Manhattan, New York County, New York City, New York,10025, United States of America,
531,37.7919198,-122.417154,NA,SF,NA,NA,NA,Wreck Room,1390, California Street, Nob Hill, San Francisco, San Francisco City and County, California,94121, United States of America,
532,34.08466233,-118.2627248,NA,LA,NA,NA,NA,Berkeley Avenue, Silver Lake, Angelino Heights, Los Angeles, Los Angeles County, California,90026, United States of America,,
533,40.65072823,-73.96360915,NA,NYC,NA,NA,NA,20, East 18th Street, Flatbush, Brooklyn, Kings County, New York City, New York,11226, United States of America,
534,40.6853136,-73.92709681,NA,NYC,NA,NA,NA,701, Hancock Street, Bedford-Stuyvesant, Brooklyn, Kings County, New York City, New York,11221, United States of America,
535,34.02894299,-118.4861454,NA,LA,NA,NA,NA,W.I. Simonson,1626, Wilshire Boulevard, Brentwood, Los Angeles, Los Angeles County, California,90403, United States of America,
536,40.66569239,-73.97999585,NA,NYC,NA,NA,NA,500, 9th Street, Park Slope, Brooklyn, Kings County, New York City, New York,11215, United States of America,
537,34.03127621,-118.8459032,NA,LA,NA,NA,NA,Broad Beach Road, Malibu, Los Angeles County, California,90265, United States of America,,,,
538,34.02820503,-118.2917788,NA,LA,NA,NA,NA,Vermont Avenue, Saint James Park, Los Angeles, Los Angeles County, California,90089, United States of America,,,
539,37.77519305,-122.4184302,NA,SF,NA,NA,NA,1, South Van Ness Avenue, West SoMa, San Francisco, San Francisco City and County, California,94103, United States of America,,
540,38.92318687,-77.04319046,NA,DC,NA,NA,NA,1814, Adams Mill Road Northwest, Woodley Park, Washington, District of Columbia,20009, United States of America,,,
541,34.03217712,-118.3497694,NA,LA,NA,NA,NA,Church of the Advent,11601, South Longwood Avenue, The Village Green, Los Angeles, Los Angeles County, California,90016, United States of America,
542,40.69047584,-73.84713772,NA,NYC,NA,NA,NA,96-18, 91st Avenue, Woodhaven, Queens County, New York City, New York,11421, United States of America,,
543,42.30034332,-71.11276471,NA,Boston,NA,NA,NA,Greenier Print Shop Inc.,3702, Washington Street, Forest Hills, Jamaica Plain, Boston, Suffolk County, Massachusetts,2130, United States of America
544,37.77040966,-122.4366376,NA,SF,NA,NA,NA,SF Fire Department, Waller Street, Castro District, San Francisco, San Francisco City and County, California,94117, United States of America,,
545,40.68228403,-73.94644568,NA,NYC,NA,NA,NA,171, Halsey Street, Bedford-Stuyvesant, Brooklyn, Kings County, New York City, New York,11216, United States of America,
546,37.71358053,-122.4373564,NA,SF,NA,NA,NA,Broken Record, Geneva Avenue, Crocker-Amazon, San Francisco, San Francisco City and County, California,94112, United States of America,,
547,40.59483935,-73.96587008,NA,NYC,NA,NA,NA,511, Gravesend Neck Road, Gravesend, Kings County, New York City, New York,11223, United States of America,,
548,40.82636954,-73.93925351,NA,NYC,NA,NA,NA,2830, Frederick Douglass Boulevard, Hamilton Heights, Manhattan, New York County, New York City, New York,10039, United States of America,
549,34.06330256,-118.3902756,NA,LA,NA,NA,NA,South Oakhurst Drive, Beverly Hills, Los Angeles County, California,90212, United States of America,,,,
550,34.12456933,-118.6569192,NA,LA,NA,NA,NA,Mulholland Highway, Calabasas, Los Angeles County, California,91302, United States of America,,,,
551,37.74463493,-122.4086256,NA,SF,NA,NA,NA,Samoset Street, Mission District, San Francisco, San Francisco City and County, California,94110, United States of America,,,
552,40.78441926,-73.97113409,NA,NYC,NA,NA,NA,15, West 84th Street, Upper West Side, Manhattan, New York County, New York City, New York,10024, United States of America,
553,40.77471961,-73.98322622,NA,NYC,NA,NA,NA,147, West 66th Street, Lincoln Square, Manhattan, New York County, New York City, New York,10023, United States of America,
554,41.89952418,-87.66419685,NA,Chicago,NA,NA,NA,1443, West Augusta Boulevard, Wicker Park, Near North Side, Chicago, Cook County, Illinois,60651, United States of America,
555,40.68389048,-73.93436825,NA,NYC,NA,NA,NA,457, Halsey Street, Bedford-Stuyvesant, Brooklyn, Kings County, New York City, New York,11233, United States of America,
556,34.17439311,-118.1246311,NA,LA,NA,NA,NA,East Topeka Street, Pasadena, Los Angeles County, California,91104, United States of America,,,,
557,38.88250695,-76.99838542,NA,DC,NA,NA,NA,504, 6th Street Southeast, Capitol Hill, Washington, District of Columbia,20003, United States of America,,,
558,38.9357498,-77.06085189,NA,DC,NA,NA,NA,3501, 30th Street Northwest, Cleveland Park, Washington, District of Columbia,20008, United States of America,,,
559,37.74956449,-122.4338946,NA,SF,NA,NA,NA,Castro St and 25th St, Castro Street, Noe Valley, San Francisco, San Francisco City and County, California,94131, United States of America,,
560,40.73171681,-73.98460435,NA,NYC,NA,NA,NA,New York Eye and Ear Infirmary, East 14th Street, East Village, Manhattan, New York County, New York City, New York,10003, United States of America,
561,38.94177363,-77.02313142,NA,DC,NA,NA,NA,Petworth, United States of America,,,,,,,,
562,34.18319591,-118.3784554,NA,LA,NA,NA,NA,Erwin Street, Hewitt, North Hollywood, Los Angeles, Los Angeles County, California,91606, United States of America,,
563,34.10433452,-118.4451668,NA,LA,NA,NA,NA,Calgary Lane, Beverly Glen, Westwood, Los Angeles, Los Angeles County, California,90077, United States of America,,
564,34.09263249,-118.3327427,NA,LA,NA,NA,NA,Lexington Avenue, Hollywood, Los Angeles, Los Angeles County, California,90038, United States of America,,,
565,33.99445279,-118.4584923,NA,LA,NA,NA,NA,Superba Court, Venice, Los Angeles, Los Angeles County, California,90291, United States of America,,,
566,40.8419175,-73.91107891,NA,NYC,NA,NA,NA,1551, Sheridan Avenue, Tremont, Bronx, Bronx County, New York City, New York,10457, United States of America,
567,33.99845781,-118.4168993,NA,LA,NA,NA,NA,Avon Way, Del Rey, Culver Garden, Los Angeles, Los Angeles County, California,90066, United States of America,,
568,40.77758377,-73.94641966,NA,NYC,NA,NA,NA,447, East 88th Street, Yorkville, Manhattan, New York County, New York City, New York,10128, United States of America,
569,40.73522309,-73.99709791,NA,NYC,NA,NA,NA,55, West 11th Street, Washington Square Village, Manhattan, New York County, New York City, New York,10011, United States of America,
570,38.90565937,-77.06047533,NA,DC,NA,NA,NA,Colonial Parking, M Street Northwest, Georgetown, Washington, District of Columbia,20007, United States of America,,,
571,40.83896747,-73.86031241,NA,NYC,NA,NA,NA,1, Metropolitan Oval, Parkchester, Bronx, Bronx County, New York City, New York,10462, United States of America,
572,41.89020183,-87.77285335,NA,Chicago,NA,NA,NA,5914, West Race Avenue, Austin, Chicago, Cook County, Illinois,60644, United States of America,,
573,37.74685202,-122.4264959,NA,SF,NA,NA,NA,277, 27th Street, Noe Valley, San Francisco, San Francisco City and County, California,94131, United States of America,,
574,38.90681821,-77.06506339,NA,DC,NA,NA,NA,3254, N Street Northwest, Georgetown, Washington, District of Columbia,20007, United States of America,,,
575,40.69401148,-73.90917105,NA,NYC,NA,NA,NA,1324, Hancock Street, Bushwick, Kings County, New York City, New York,11237, United States of America,,
576,42.28797398,-71.12977111,NA,Boston,NA,NA,NA,Citizens Bank (Roslindale),777, South Street, Roslindale, West Roxbury, Boston, Suffolk County, Massachusetts, 02131-3025, United States of America
577,40.72700567,-73.98625852,NA,NYC,NA,NA,NA,84, East 7th Street, Alphabet City, Manhattan, New York County, New York City, New York,10003, United States of America,
578,40.8422328,-73.93912459,NA,NYC,NA,NA,NA,601, West 170th Street, Washington Heights, Manhattan, New York County, New York City, New York,10032, United States of America,
579,40.65606197,-73.9590166,NA,NYC,NA,NA,NA,263, Parkside Avenue, Flatbush, Brooklyn, Kings County, New York City, New York,11225, United States of America,
580,38.94952835,-77.0251606,NA,DC,NA,NA,NA,4829, 9th Street Northwest, Petworth, Columbia Heights, Washington, District of Columbia,20011, United States of America,,
581,40.66922622,-73.98133735,NA,NYC,NA,NA,NA,448, 6th Street, Park Slope, Brooklyn, Kings County, New York City, New York,11215, United States of America,
582,40.72136525,-73.94220697,NA,NYC,NA,NA,NA,585, Meeker Avenue, Greenpoint, Kings County, New York City, New York,11222, United States of America,,
583,34.06703315,-118.3961405,NA,LA,NA,NA,NA,SIXTY Beverly Hills, Wilshire Boulevard, Beverly Hills, Los Angeles County, California,90212, United States of America,,,
584,37.77794411,-122.4799253,NA,SF,NA,NA,NA,21st Avenue, Richmond District, San Francisco, San Francisco City and County, California,94121, United States of America,,,
585,40.84549588,-73.94178194,NA,NYC,NA,NA,NA,725, West 172nd Street, Washington Heights, Manhattan, New York County, New York City, New York,10032, United States of America,
586,40.79772344,-73.96260442,NA,NYC,NA,NA,NA,53, West 104th Street, Park West Village, Manhattan, New York County, New York City, New York,10025, United States of America,
587,38.91097015,-77.08699571,NA,DC,NA,NA,NA,4527, Q Lane Northwest, Foxhall Village, Glover Park, Washington, District of Columbia,20007, United States of America,,
588,40.71356822,-74.00489665,NA,NYC,NA,NA,NA,Emigrant Industrial Savings Bank Building,51, Chambers Street, Tribeca, Manhattan, New York County, New York City, New York,10007, United States of America
589,33.95758309,-118.3317194,NA,LA,NA,NA,NA,Rosehedge Lane, Inglewood, Los Angeles County, California,90305, United States of America,,,,
590,40.76024143,-73.99286247,NA,NYC,NA,NA,NA,425, West 44th Street, Hell's Kitchen, Manhattan, New York County, New York City, New York,10036, United States of America,
591,40.72092041,-73.98849066,NA,NYC,NA,NA,NA,158, Orchard Street, Lower East Side, Manhattan, New York County, New York City, New York,10002, United States of America,
592,40.69758108,-73.93493359,NA,NYC,NA,NA,NA,17, Jefferson Street, Bushwick, Kings County, New York City, New York,11206, United States of America,,
593,40.7176478,-73.9624042,NA,NYC,NA,NA,NA,234, Wythe Avenue, Williamsburg, Kings County, New York City, New York,11249, United States of America,,
594,40.7398383,-74.00187176,NA,NYC,NA,NA,NA,80, 8th Avenue, Chelsea, Manhattan, New York County, New York City, New York,10011, United States of America,
595,40.71676538,-73.94963158,NA,NYC,NA,NA,NA,270, Meeker Avenue, Greenpoint, Kings County, New York City, New York,11211, United States of America,,
596,38.91173754,-77.01174836,NA,DC,NA,NA,NA,1621, 1st Street Northwest, Truxton Circle, Chinatown, Washington, District of Columbia,20001, United States of America,,
597,33.98838288,-118.450989,NA,LA,NA,NA,NA,Jolly Roger Hotel, W Washington Boulevard, Venice, Los Angeles, Los Angeles County, California,90292, United States of America,,
598,40.63964427,-73.95628885,NA,NYC,NA,NA,NA,430, East 23rd Street, Ditmas Park, Brooklyn, Kings County, New York City, New York,11226, United States of America,
599,40.79323317,-73.97266586,NA,NYC,NA,NA,NA,94 Corner Cafe,2518, Broadway, Upper West Side, Manhattan, New York County, New York City, New York,10025, United States of America
600,40.58660311,-73.81257692,NA,NYC,NA,NA,NA,86-15, Rockaway Beach Boulevard, Hammels, Rockaway Beach, Queens County, New York City, New York,11693, United States of America,
601,40.71975229,-73.98608157,NA,NYC,NA,NA,NA,Lower East Side Preparatory High School,145, Stanton Street, Lower East Side, Manhattan, New York County, New York City, New York,10002, United States of America
602,37.79179956,-122.4322354,NA,SF,NA,NA,NA,Seventh Day Adventist Japanese Church, Washington Street, Pacific Heights, San Francisco, San Francisco City and County, California,94115, United States of America,,
603,40.78458405,-73.97836453,NA,NYC,NA,NA,NA,The Broadway, West 81st Street, Upper West Side, Manhattan, New York County, New York City, New York,10024, United States of America,
604,40.76302756,-73.9815412,NA,NYC,NA,NA,NA,Tower 53, West 53rd Street, Diamond District, Manhattan, New York County, New York City, New York,10019, United States of America,
605,33.86508911,-118.3783881,NA,LA,NA,NA,NA,Marshallfield Lane, Redondo Beach, Los Angeles County, California,90278, United States of America,,,,
606,40.79677907,-73.96545402,NA,NYC,NA,NA,NA,830, Columbus Avenue, Frederick Douglass Houses, Manhattan, New York County, New York City, New York,10025, United States of America,
607,38.90682819,-77.03778954,NA,DC,NA,NA,NA,1615, Rhode Island Avenue Northwest, Dupont Circle, Washington, District of Columbia,20036, United States of America,,,
608,40.72636366,-73.98231355,NA,NYC,NA,NA,NA,Tompkins Square Park, East 9th Street, Alphabet City, Manhattan, New York County, New York City, New York,10009, United States of America,
609,41.90509457,-87.68649535,NA,Chicago,NA,NA,NA,1305, North Western Avenue, West Town, Chicago, Cook County, Illinois,60645, United States of America,,
610,40.74787366,-74.0008828,NA,NYC,NA,NA,NA,406, West 25th Street, Chelsea, Manhattan, New York County, New York City, New York,10001, United States of America,
611,40.69485331,-73.95109337,NA,NYC,NA,NA,NA,29, Vernon Avenue, Bedford-Stuyvesant, Brooklyn, Kings County, New York City, New York,11206, United States of America,
612,40.82286511,-73.93899088,NA,NYC,NA,NA,NA,203, West 146th Street, Hamilton Heights, Manhattan, New York County, New York City, New York,10039, United States of America,
613,40.66289983,-73.99004695,NA,NYC,NA,NA,NA,272, 17th Street, South Slope, Brooklyn, Kings County, New York City, New York,11215, United States of America,
614,40.70644616,-74.00781865,NA,NYC,NA,NA,NA,70 Pine Street, Pine Street, Southbridge Towers, Manhattan, New York County, New York City, New York,10005, United States of America,
615,37.77660678,-122.4170113,NA,SF,NA,NA,NA,Market Square,1355, Market Street, West SoMa, San Francisco, San Francisco City and County, California,94103, United States of America,
616,34.10421329,-118.2600402,NA,LA,NA,NA,NA,Ivan Hill Terrace, Silver Lake Heights, Atwater, Los Angeles, Los Angeles County, California,90039, United States of America,,
617,41.89414213,-87.63060619,NA,Chicago,NA,NA,NA,70, West Erie Street, Magnificent Mile, Near North Side, Chicago, Cook County, Illinois,60610, United States of America,
618,37.77042647,-122.4481584,NA,SF,NA,NA,NA,Clayton Street Post Office,554, Clayton Street, Haight-Ashbury, San Francisco, San Francisco City and County, California, 94117-9991, United States of America,
619,41.89836363,-87.62865255,NA,Chicago,NA,NA,NA,Chestnut Place Apartments, 848-850, North State Street, Magnificent Mile, Near North Side, Chicago, Cook County, Illinois,60654, United States of America
620,33.81844571,-118.125882,NA,LA,NA,NA,NA,Wardlow Street, Los Altos, Long Beach, Los Angeles County, California,90808, United States of America,,,
621,34.02982025,-118.5091161,NA,LA,NA,NA,NA,Georgina Place, Santa Monica, Los Angeles County, California,90402, United States of America,,,,
622,37.80424408,-122.4361975,NA,SF,NA,NA,NA,Beach Street, Marina District, San Francisco, San Francisco City and County, California,94123, United States of America,,,
623,40.67615201,-73.94925604,NA,NYC,NA,NA,NA,1100 Bergen Street Community Garden, Bergen Street, Crown Heights, Brooklyn, Kings County, New York City, New York,11213, United States of America,
624,40.79474467,-73.9382952,NA,NYC,NA,NA,NA,Public School 102,315, East 113th Street, Thomas Jefferson Houses, Manhattan, New York County, New York City, New York,10029, United States of America
625,40.71341662,-73.94803191,NA,NYC,NA,NA,NA,84, Devoe Street, Williamsburg, Kings County, New York City, New York,11211, United States of America,,
626,34.09783268,-118.3501551,NA,LA,NA,NA,NA,Urban ramen,7300, West Sunset Boulevard, Whitley Heights, Los Angeles, Los Angeles County, California, 90046-4101, United States of America,
627,40.71584449,-73.99189098,NA,NYC,NA,NA,NA,34, Allen Street, Lower East Side, Manhattan, New York County, New York City, New York,10002, United States of America,
628,40.79306936,-73.97070107,NA,NYC,NA,NA,NA,711, Amsterdam Avenue, Park West Village, Manhattan, New York County, New York City, New York,10025, United States of America,
629,40.75582866,-73.91839441,NA,NYC,NA,NA,NA,42-15, 34th Avenue, Sunnyside Gardens, Queens County, New York City, New York,11103, United States of America,,
630,40.66185109,-73.95975224,NA,NYC,NA,NA,NA,41, Lefferts Avenue, Crown Heights, Brooklyn, Kings County, New York City, New York,11225, United States of America,
631,40.74366094,-74.00050404,NA,NYC,NA,NA,NA,306, West 20th Street, Chelsea, Manhattan, New York County, New York City, New York,10011, United States of America,
632,40.69056921,-73.97182903,NA,NYC,NA,NA,NA,232, Adelphi Street, Fort Greene, Brooklyn, Kings County, New York City, New York,11205, United States of America,
633,41.96399318,-87.65310064,NA,Chicago,NA,NA,NA,4504-4510, North Hazel Street, Buena Park, Uptown, Chicago, Cook County, Illinois,60613, United States of America,
634,38.89081609,-76.98344298,NA,DC,NA,NA,NA,31, 15th Street Northeast, Carver, Washington, District of Columbia,20002, United States of America,,,
635,38.95344567,-77.01875962,NA,DC,NA,NA,NA,427, Hamilton Street Northwest, Brightwood Park, Lamond Riggs, Washington, District of Columbia,20011, United States of America,,
636,40.74329046,-73.86726127,NA,NYC,NA,NA,NA,96-07, Alstyne Avenue, Corona, Queens County, New York City, New York,11368, United States of America,,
637,34.08974187,-118.386142,NA,LA,NA,NA,NA,Harratt Street, West Hollywood, Los Angeles County, California,90069, United States of America,,,,
638,34.04839785,-118.2494614,NA,LA,NA,NA,NA,430, South Broadway, Historic Core District, Bunker Hill, Los Angeles, Los Angeles County, California,90013, United States of America,
639,34.14367105,-118.0581318,NA,LA,NA,NA,NA,Vaquero Road, Arcadia, Los Angeles County, California,91007, United States of America,,,,
640,38.91935764,-77.02604685,NA,DC,NA,NA,NA,927, W Street Northwest, Cardozo/Shaw, Columbia Heights, Washington, District of Columbia,20009, United States of America,,
641,40.69974285,-73.93379665,NA,NYC,NA,NA,NA,125, Melrose Street, Bushwick, Kings County, New York City, New York,11206, United States of America,,
642,42.36104657,-71.06727329,NA,Boston,NA,NA,NA,Supercuts,250, Cambridge Street, Downtown Crossing, Beacon Hill, Boston, Suffolk County, Massachusetts,2114, United States of America
643,40.6648889,-73.99345981,NA,NYC,NA,NA,NA,610, 4th Avenue, South Slope, Brooklyn, Kings County, New York City, New York,11215, United States of America,
644,40.72052357,-73.96239332,NA,NYC,NA,NA,NA,The Edge North Tower,34, North 7th Street, Williamsburg, Kings County, New York City, New York,11211, United States of America,
645,34.10049255,-118.2852359,NA,LA,NA,NA,NA,Camero Avenue, Los Feliz, Little Armenia, Los Angeles, Los Angeles County, California,90027, United States of America,,
646,42.34594735,-71.08066545,NA,Boston,NA,NA,NA,Brasserie JO,120, Huntington Avenue, Chinatown, Back Bay, Boston, Suffolk County, Massachusetts,2116, United States of America
647,33.97213992,-118.4518058,NA,LA,NA,NA,NA,Bora Bora Way, Marina del Rey, Beverly Hills, Los Angeles County, California,90292, United States of America,,,
648,34.09483612,-118.3737314,NA,LA,NA,NA,NA,House of Blues, Olive Drive, West Hollywood, Los Angeles County, California,90069, United States of America,,,
649,38.94362327,-77.02507842,NA,DC,NA,NA,NA,4300, Kansas Avenue Northwest, Petworth, Columbia Heights, Washington, District of Columbia,20011, United States of America,,
650,41.92810841,-87.63572776,NA,Chicago,NA,NA,NA,North Cannon Drive, Mid-North District, Near North Side, Chicago, Cook County, Illinois,60614, United States of America,,
651,34.18465625,-118.6532831,NA,LA,NA,NA,NA,Victory Boulevard, West Hills, Los Angeles, Los Angeles County, California,91307, United States of America,,,
652,40.67621415,-73.9699961,NA,NYC,NA,NA,NA,Public School 111,227, Sterling Place, Prospect Heights, Brooklyn, Kings County, New York City, New York,11238, United States of America
653,40.69260077,-73.99286115,NA,NYC,NA,NA,NA,180, Joralemon Street, Brooklyn Heights, Kings County, New York City, New York,11201, United States of America,,
654,41.90010403,-87.67399777,NA,Chicago,NA,NA,NA,1014, North Honore Street, Wicker Park, Near North Side, Chicago, Cook County, Illinois,60622, United States of America,
655,34.0938683,-118.3044933,NA,LA,NA,NA,NA,Hobart Boulevard, East Hollywood, Little Armenia, Los Angeles, Los Angeles County, California,90029, United States of America,,
656,38.90687686,-76.97994217,NA,DC,NA,NA,NA,1257, 16th Street Northeast, Trinidad, Washington, District of Columbia,20002, United States of America,,,
657,34.04820542,-118.2621134,NA,LA,NA,NA,NA,Corner Bakery,11601, 8th Street, South Park, Bunker Hill, Los Angeles, Los Angeles County, California,90017, United States of America
658,34.05841643,-118.3403356,NA,LA,NA,NA,NA,West 9th Street, Hancock Park, Cienega, Los Angeles, Los Angeles County, California,90019, United States of America,,
659,37.77346553,-122.4111267,NA,SF,NA,NA,NA,Heavybit Industries,325, 9th Street, West SoMa, San Francisco, San Francisco City and County, California,94103, United States of America,
660,34.10167578,-118.2302836,NA,LA,NA,NA,NA,Kilbourn Street, Mount Washington, Highland Park, Los Angeles, Los Angeles County, California,90065, United States of America,,
661,38.92230981,-77.03462505,NA,DC,NA,NA,NA,Park Square,2407, 15th Street Northwest, Columbia Heights, Washington, District of Columbia,20009, United States of America,,
662,40.70695995,-73.9358761,NA,NYC,NA,NA,NA,310, Johnson Avenue, Williamsburg, Kings County, New York City, New York,11206, United States of America,,
663,40.76959915,-73.92693692,NA,NYC,NA,NA,NA,21-21, 30th Avenue, Astoria, Queens County, New York City, New York,11102, United States of America,,
664,40.69280477,-73.91613975,NA,NYC,NA,NA,NA,440, Central Avenue, Bushwick, Kings County, New York City, New York,11221, United States of America,,
665,40.68118466,-73.96126053,NA,NYC,NA,NA,NA,469, Grand Avenue, Adelphi, Brooklyn, Kings County, New York City, New York,11238, United States of America,
666,40.70745411,-73.94306903,NA,NYC,NA,NA,NA,168, Graham Avenue, Williamsburg, Kings County, New York City, New York,11206, United States of America,,
667,40.75285988,-73.90707004,NA,NYC,NA,NA,NA,Sports Authority, Northern Boulevard, Woodside, Queens County, New York City, New York,11377, United States of America,,
668,40.73522211,-73.86681254,NA,NYC,NA,NA,NA,94-11, 59th Avenue, Elmhurst, Queens County, New York City, New York,11373, United States of America,,
669,38.90089464,-76.99382916,NA,DC,NA,NA,NA,812, 9th Street Northeast, Near Northeast, Washington, District of Columbia,20002, United States of America,,,
670,40.71311998,-73.96335516,NA,NYC,NA,NA,NA,105, South 3rd Street, Williamsburg, Kings County, New York City, New York,11249, United States of America,,
671,40.73032597,-73.98741838,NA,NYC,NA,NA,NA,129, East 10th Street, East Village, Manhattan, New York County, New York City, New York,10003, United States of America,
672,34.07125142,-118.3769113,NA,LA,NA,NA,NA,Church of Religious Science of Beverly Hills,11601, West 4th Street, Carthay Circle, Los Angeles, Los Angeles County, California,90048, United States of America,
673,34.09999374,-118.7969601,NA,LA,NA,NA,NA,Mulholland Highway, Seminole Hot Springs, Los Angeles County, California,90265, United States of America,,,,
674,34.15276703,-118.4616043,NA,LA,NA,NA,NA,Noble Avenue, Sherman Oaks, Los Angeles, Los Angeles County, California,91403, United States of America,,,
675,40.76606302,-73.95505874,NA,NYC,NA,NA,NA,423, East 70th Street, Upper East Side, Manhattan, New York County, New York City, New York,10021, United States of America,
676,40.71551504,-74.00748949,NA,NYC,NA,NA,NA,176, Church Street, Tribeca, Manhattan, New York County, New York City, New York,10013, United States of America,
677,41.86634953,-87.62470968,NA,Chicago,NA,NA,NA,1234, South Michigan Avenue, South Loop, Near North Side, Chicago, Cook County, Illinois,60605, United States of America,
678,34.02957551,-118.3549257,NA,LA,NA,NA,NA,Westhaven Street, The Village Green, Los Angeles, Los Angeles County, California,90016, United States of America,,,
679,33.99676959,-118.4503613,NA,LA,NA,NA,NA,Glyndon Court, Mar Vista, Los Angeles, Los Angeles County, California,90291, United States of America,,,
680,40.68924146,-73.96453209,NA,NYC,NA,NA,NA,293, Lafayette Avenue, Clinton Hill, Brooklyn, Kings County, New York City, New York,11205, United States of America,
681,40.82736053,-73.95291626,NA,NYC,NA,NA,NA,Hudson River Greenway, Manhattanville, Manhattan, New York County, New York City, New York,10031, United States of America,,
682,33.98752414,-118.4604281,NA,LA,NA,NA,NA,Mildred Avenue, Venice, Los Angeles, Los Angeles County, California,90291, United States of America,,,
683,33.99965264,-118.4741228,NA,LA,NA,NA,NA,Rennie Court, Venice, Los Angeles, Los Angeles County, California,90405, United States of America,,,
684,40.70296232,-73.92919052,NA,NYC,NA,NA,NA,37, Wilson Avenue, Bushwick, Kings County, New York City, New York,11237, United States of America,,
685,40.66069537,-73.96167738,NA,NYC,NA,NA,NA,37, Lincoln Road, Flatbush, Brooklyn, Kings County, New York City, New York,11225, United States of America,
686,40.71869302,-73.99310062,NA,NYC,NA,NA,NA,313, Broome Street, Chinatown, Manhattan, New York County, New York City, New York,10002, United States of America,
687,41.92278046,-87.71089556,NA,Chicago,NA,NA,NA,3311-3313, West Belden Avenue, Simons, Chicago, Cook County, Illinois,60647, United States of America,,
688,37.77369044,-122.4151378,NA,SF,NA,NA,NA,Metric Motors,1480, Howard Street, West SoMa, San Francisco, San Francisco City and County, California,94103, United States of America,
689,40.82794855,-73.94359737,NA,NYC,NA,NA,NA,419, West 150th Street, Hamilton Heights, Manhattan, New York County, New York City, New York,10031, United States of America,
690,38.91796789,-77.0270994,NA,DC,NA,NA,NA,Lincoln Condominiums, 12th Street Northwest, Cardozo/Shaw, Logan Circle, Washington, District of Columbia,20009, United States of America,,
691,40.72715564,-74.00320204,NA,NYC,NA,NA,NA,1, Charlton Street, Greenwich Village, Manhattan, New York County, New York City, New York,10014, United States of America,
692,40.70402575,-73.95532928,NA,NYC,NA,NA,NA,220, Penn Street, Williamsburg, Kings County, New York City, New York,11211, United States of America,,
693,40.70971976,-73.94124205,NA,NYC,NA,NA,NA,215, Stagg Walk, Williamsburg Houses, Kings County, New York City, New York,11206, United States of America,,
694,40.76141468,-73.7210873,NA,NYC,NA,NA,NA,58-26, 262nd Street, Glen Oaks, Queens County, New York City, New York,11362, United States of America,,
695,34.15415282,-118.0260925,NA,LA,NA,NA,NA,Oakhaven Road, Arcadia, Los Angeles County, California,91006, United States of America,,,,
696,40.73515999,-74.0022675,NA,NYC,NA,NA,NA,25, Charles Street, Greenwich Village, Manhattan, New York County, New York City, New York,10014, United States of America,
697,40.65511767,-73.95741754,NA,NYC,NA,NA,NA,69, Clarkson Avenue, Flatbush, Brooklyn, Kings County, New York City, New York,11226, United States of America,
698,37.78382126,-122.428723,NA,SF,NA,NA,NA,Galilee Lane, Japantown, San Francisco, San Francisco City and County, California,94115, United States of America,,,
699,38.92408999,-77.04575264,NA,DC,NA,NA,NA,Walter Pierce Park, Calvert Street Northwest, Woodley Park, Washington, District of Columbia,20008, United States of America,,,
700,40.73844497,-73.99261928,NA,NYC,NA,NA,NA,4, West 18th Street, Chelsea, Manhattan, New York County, New York City, New York,10011, United States of America,
701,40.74585388,-73.9949641,NA,NYC,NA,NA,NA,207, West 25th Street, Chelsea, Manhattan, New York County, New York City, New York,10001, United States of America,
702,34.17670481,-118.5199592,NA,LA,NA,NA,NA,Hatteras Street, Encino, Los Angeles, Los Angeles County, California,91316, United States of America,,,
703,34.09421121,-118.3647647,NA,LA,NA,NA,NA,Fountain Avenue, West Hollywood, Los Angeles County, California,90046, United States of America,,,,
704,40.73580556,-73.9539239,NA,NYC,NA,NA,NA,Parish School of Saints Cyril and Methodius,150, Dupont Street, Greenpoint, Kings County, New York City, New York,11222, United States of America,
705,34.00947436,-118.4648314,NA,LA,NA,NA,NA,Wellesley Drive, Santa Monica, Los Angeles County, California,90405, United States of America,,,,
706,38.93181717,-77.04541095,NA,DC,NA,NA,NA,1939, Lamont Street Northwest, Mount Pleasant, Woodley Park, Washington, District of Columbia,20010, United States of America,,
707,41.8923704,-87.64061986,NA,Chicago,NA,NA,NA,River Bend Lofts,550, North Kingsbury Street, Cabrini-Green, Near North Side, Chicago, Cook County, Illinois,60654, United States of America
708,33.97885075,-118.4656801,NA,LA,NA,NA,NA,Cabo Cantina,30, Washington Boulevard, Venice, Los Angeles, Los Angeles County, California,90292, United States of America,
709,34.05798827,-117.7451933,NA,LA,NA,NA,NA,East 2nd Street, Pomona, Los Angeles County, California,91766, United States of America,,,,
710,37.76779802,-122.4373224,NA,SF,NA,NA,NA,Alpine Terrace, Castro District, San Francisco, San Francisco City and County, California,94117, United States of America,,,
711,40.68883617,-73.94158835,NA,NYC,NA,NA,NA,505, Lexington Avenue, Bedford-Stuyvesant, Brooklyn, Kings County, New York City, New York,11221, United States of America,
712,34.09191734,-118.3681399,NA,LA,NA,NA,NA,Norton Avenue, West Hollywood, Los Angeles County, California,90046, United States of America,,,,
713,34.18322064,-118.4143521,NA,LA,NA,NA,NA,Coldwater Canyon Avenue, Garnsey, Valley Village, Los Angeles, Los Angeles County, California,91605, United States of America,,
714,34.19115404,-118.1320417,NA,LA,NA,NA,NA,Rite Aid, East Pine Street, Altadena, Los Angeles County, California,91001, United States of America,,,
715,38.88938673,-77.00234409,NA,DC,NA,NA,NA,Folger Shakespeare Library,201, East Capitol Street Northeast, Capitol Hill, Washington, District of Columbia,20003, United States of America,,
716,40.76726895,-73.95838528,NA,NYC,NA,NA,NA,315, East 70th Street, Upper East Side, Manhattan, New York County, New York City, New York,10021, United States of America,
717,40.68522824,-73.95702497,NA,NYC,NA,NA,NA,254, Gates Avenue, Adelphi, Brooklyn, Kings County, New York City, New York,11238, United States of America,
718,34.09568638,-118.3747154,NA,LA,NA,NA,NA,Cresthill Road, Whitley Heights, Los Angeles, Los Angeles County, California,90069, United States of America,,,
719,37.77259746,-122.4540458,NA,SF,NA,NA,NA,Stanyan Street, Haight-Ashbury, San Francisco, San Francisco City and County, California,94114, United States of America,,,
720,34.55620284,-118.0305128,NA,LA,NA,NA,NA,Alder Street, Palmdale, Los Angeles County, California,93552, United States of America,,,,
721,40.76649376,-73.88290434,NA,NYC,NA,NA,NA,23-26, 87th Street, North Beach, Queens County, New York City, New York,11369, United States of America,,
722,38.92035921,-77.04373577,NA,DC,NA,NA,NA,1868, Columbia Road Northwest, Adams Morgan, Dupont Circle, Washington, District of Columbia,20009, United States of America,,
723,40.68511632,-73.95029192,NA,NYC,NA,NA,NA,373, Nostrand Avenue, Bedford-Stuyvesant, Brooklyn, Kings County, New York City, New York,11216, United States of America,
724,41.82560027,-87.6052437,NA,Chicago,NA,NA,NA,3845, South Ellis Avenue, Oakland, Chicago, Cook County, Illinois,60615, United States of America,,
725,40.74257494,-73.99669043,NA,NYC,NA,NA,NA,181, 7th Avenue, Chelsea, Manhattan, New York County, New York City, New York,10011, United States of America,
726,34.19577568,-118.6429727,NA,LA,NA,NA,NA,Highlander Road, West Hills, Los Angeles, Los Angeles County, California,91307, United States of America,,,
727,40.69796003,-73.89620744,NA,NYC,NA,NA,NA,75-20, 60th Place, Fresh Pond Junction, Queens County, New York City, New York,11385, United States of America,,
728,40.71546164,-73.98906917,NA,NYC,NA,NA,NA,Seward Park, pedestrian, Lower East Side, Manhattan, New York County, New York City, New York,10002, United States of America,
729,42.30399226,-71.07041842,NA,Boston,NA,NA,NA,Bowdoin St @ Eunice St, Bowdoin Street, Mount Bowdoin, Dorchester, Boston, Suffolk County, Massachusetts,2122, United States of America,
730,40.73327995,-73.98094495,NA,NYC,NA,NA,NA,288, 1st Avenue, East Village, Manhattan, New York County, New York City, New York,10009, United States of America,
731,37.78401048,-122.4384712,NA,SF,NA,NA,NA,Divisadero Street, Lower Pacific Heights, San Francisco, San Francisco City and County, California,94115, United States of America,,,
732,33.99658288,-118.4173832,NA,LA,NA,NA,NA,Kensington Road, Del Rey, Culver Garden, Los Angeles, Los Angeles County, California,90066, United States of America,,
733,34.13205454,-118.2331312,NA,LA,NA,NA,NA,Verdugo Road, Atwater, Los Angeles, Los Angeles County, California,90065, United States of America,,,
734,40.82947691,-73.92363953,NA,NYC,NA,NA,NA,958, Gerard Avenue, High Bridge, Bronx County, New York City, New York,10452, United States of America,,
735,41.87954467,-87.69445572,NA,Chicago,NA,NA,NA,2712, West Wilcox Street, East Garfield Park, Chicago, Cook County, Illinois,60612, United States of America,,
736,40.82854145,-73.94569101,NA,NYC,NA,NA,NA,500, West 150th Street, Hamilton Heights, Manhattan, New York County, New York City, New York,10031, United States of America,
737,40.75848203,-73.98413664,NA,NYC,NA,NA,NA,155, West 46th Street, Diamond District, Manhattan, New York County, New York City, New York,10036, United States of America,
738,33.81697793,-118.1880231,NA,LA,NA,NA,NA,30A, San Diego Freeway, Signal Hill, Los Angeles County, California,90806, United States of America,,,
739,34.18315456,-118.4527982,NA,LA,NA,NA,NA,Kingdom Hall of Jehovahs Witnesses,11601, Cedros Avenue, North Sherman Way, Van Nuys, Los Angeles, Los Angeles County, California,91405, United States of America
740,34.09295292,-118.3661774,NA,LA,NA,NA,NA,North Crescent Heights Boulevard, West Hollywood, Los Angeles County, California,90046, United States of America,,,,
741,34.14227398,-118.4133875,NA,LA,NA,NA,NA,Coldwater Canyon Avenue, Studio City, Valley Village, Los Angeles, Los Angeles County, California,91423, United States of America,,
742,40.687691,-73.95253993,NA,NYC,NA,NA,NA,247, Lexington Avenue, Bedford-Stuyvesant, Brooklyn, Kings County, New York City, New York,11216, United States of America,
743,40.76551182,-73.98730422,NA,NYC,NA,NA,NA,802, 9th Avenue, Midtown West, Manhattan, New York County, New York City, New York,10019, United States of America,
744,34.08728321,-118.3704639,NA,LA,NA,NA,NA,North Sweetzer Avenue, West Hollywood, Los Angeles County, California,90069, United States of America,,,,
745,40.71351502,-73.99574825,NA,NYC,NA,NA,NA,49, East Broadway, Chinatown, Manhattan, New York County, New York City, New York,10002, United States of America,
746,33.98535141,-118.4735611,NA,LA,NA,NA,NA,Squash, Venice Beach Bike Path, Venice, Los Angeles, Los Angeles County, California,90291, United States of America,,
747,34.10411943,-118.3294404,NA,LA,NA,NA,NA,11-Jul, North Cahuenga Boulevard, Hollywood, Los Angeles, Los Angeles County, California,90028, United States of America,,
748,40.75877751,-73.96727217,NA,NYC,NA,NA,NA,919 Third Avenue,919, 3rd Avenue, Tudor City, Manhattan, New York County, New York City, New York,10022, United States of America
749,37.79287365,-122.4244475,NA,SF,NA,NA,NA,Haas-Lilienthal House,2007, Franklin Street, Japantown, San Francisco, San Francisco City and County, California,94109, United States of America,
750,42.3438738,-71.08789069,NA,Boston,NA,NA,NA,Westland Avenue, Roxbury Crossing, Fenway, Boston, Suffolk County, Massachusetts,2115, United States of America,,
751,40.76075548,-73.92322971,NA,NYC,NA,NA,NA,33-20, Broadway, Sunnyside Gardens, Queens County, New York City, New York,11106, United States of America,,
752,42.33417278,-71.10022573,NA,Boston,NA,NA,NA,Smith Street, Roxbury Crossing, Roxbury, Boston, Suffolk County, Massachusetts,2120, United States of America,,
753,40.78749893,-73.9467547,NA,NYC,NA,NA,NA,1809, 3rd Avenue, Yorkville, Manhattan, New York County, New York City, New York,10029, United States of America,
754,40.71920729,-73.98900387,NA,NYC,NA,NA,NA,101, Ludlow Street, Lower East Side, Manhattan, New York County, New York City, New York,10002, United States of America,
755,40.76418472,-73.91677652,NA,NYC,NA,NA,NA,30-13, 37th Street, Sunnyside Gardens, Queens County, New York City, New York,11103, United States of America,,
756,34.1028392,-118.3542013,NA,LA,NA,NA,NA,North Sierra Bonita Avenue, Whitley Heights, Los Angeles, Los Angeles County, California,90046, United States of America,,,
757,34.09888559,-118.3475625,NA,LA,NA,NA,NA,North Poinsettia Place, Whitley Heights, Los Angeles, Los Angeles County, California,90046, United States of America,,,
758,40.74276474,-74.00016922,NA,NYC,NA,NA,NA,176, 8th Avenue, Chelsea, Manhattan, New York County, New York City, New York,10011, United States of America,
759,38.93347527,-77.03844767,NA,DC,NA,NA,NA,1667, Monroe Street Northwest, Mount Pleasant, Columbia Heights, Washington, District of Columbia,20010, United States of America,,
760,34.26085525,-118.510796,NA,LA,NA,NA,NA,Louise Avenue, Granada Hills, Northridge, Los Angeles, Los Angeles County, California,91344, United States of America,,
761,40.78715271,-73.94903397,NA,NYC,NA,NA,NA,1539, Lexington Avenue, East Harlem, Manhattan, New York County, New York City, New York,10029, United States of America,
762,40.72865637,-73.8750294,NA,NYC,NA,NA,NA,84-35, 60th Road, Middle Village, Queens County, New York City, New York,11379, United States of America,,
763,34.02361843,-118.5011744,NA,LA,NA,NA,NA,5th Court, Santa Monica, Los Angeles County, California,90401, United States of America,,,,
764,34.18701161,-118.4100891,NA,LA,NA,NA,NA,91606; 91605, Charlesworth Avenue, Valley Village, Los Angeles, Los Angeles County, California, 91606; 91605, United States of America,,
765,34.10471491,-118.3324974,NA,LA,NA,NA,NA,Grace Avenue, Hollywood, Los Angeles, Los Angeles County, California,90028, United States of America,,,
766,40.68543519,-73.92457079,NA,NYC,NA,NA,NA,774, Hancock Street, Bedford-Stuyvesant, Brooklyn, Kings County, New York City, New York,11233, United States of America,
767,40.82635925,-73.93867097,NA,NYC,NA,NA,NA,43, Macombs Place, Hamilton Heights, Manhattan, New York County, New York City, New York,10039, United States of America,
768,40.70171411,-73.82788123,NA,NYC,NA,NA,NA,86-16, 123rd Street, Richmond Hill, Queens County, New York City, New York,11418, United States of America,,
769,38.84038664,-77.00371063,NA,DC,NA,NA,NA,3500, Savannah Street Southeast, Congress Heights, Washington, District of Columbia,20032, United States of America,,,
770,40.59733133,-73.99898485,NA,NYC,NA,NA,NA,8814, Bay Parkway, Bensonhurst, Kings County, New York City, New York,11214, United States of America,,
771,40.73897067,-74.00180284,NA,NYC,NA,NA,NA,240, West 14th Street, Chelsea, Manhattan, New York County, New York City, New York,10011, United States of America,
772,34.09231535,-118.3644789,NA,LA,NA,NA,NA,North Laurel Avenue, West Hollywood, Los Angeles County, California,90046, United States of America,,,,
773,40.8000091,-73.96756366,NA,NYC,NA,NA,NA,2728, Broadway, Park West Village, Manhattan, New York County, New York City, New York,10025, United States of America,
774,34.05235269,-118.2536818,NA,LA,NA,NA,NA,South Hope Street, Financial District, Bunker Hill, Los Angeles, Los Angeles County, California,90071, United States of America,,
775,40.76445579,-73.99564106,NA,NYC,NA,NA,NA,653, 11th Avenue, Clinton, Manhattan, New York County, New York City, New York,10036, United States of America,
776,40.70457622,-73.92031255,NA,NYC,NA,NA,NA,Key Food Supermarket,72, Wyckoff Avenue, Kings County, New York City, New York,11237, United States of America,,
777,34.06167235,-118.3532136,NA,LA,NA,NA,NA,German Cultural Center,11601, Wilshire Boulevard, Park La Brea, The Village Green, Los Angeles, Los Angeles County, California,90036, United States of America
778,34.08365223,-118.3620158,NA,LA,NA,NA,NA,Melrose Avenue, Park La Brea, Whitley Heights, Los Angeles, Los Angeles County, California,90069, United States of America,,
779,38.93253536,-76.96346585,NA,DC,NA,NA,NA,3129, Monroe Street Northeast, Woodridge, Washington, District of Columbia,20018, United States of America,,,
780,38.88296303,-77.02051221,NA,DC,NA,NA,NA,630, E Street Southwest, Southwest Employment Area, Penn Quarter, Washington, District of Columbia,20024, United States of America,,
781,40.74475994,-73.98040005,NA,NYC,NA,NA,NA,Windsor Court, Rose Hill, Manhattan, New York County, New York City, New York,10016, United States of America,,
782,40.70030768,-73.92964339,NA,NYC,NA,NA,NA,100, Central Avenue, Bushwick, Kings County, New York City, New York,11206, United States of America,,
783,38.91317857,-77.01919606,NA,DC,NA,NA,NA,1708, 5th Street Northwest, Logan Circle/Shaw, Chinatown, Washington, District of Columbia,20001, United States of America,,
784,34.08582465,-118.3793594,NA,LA,NA,NA,NA,Westbourne Drive, West Hollywood, Los Angeles County, California,90069, United States of America,,,,
785,40.71390781,-74.00488861,NA,NYC,NA,NA,NA,Emigrant Industrial Savings Bank Building,51, Chambers Street, Tribeca, Manhattan, New York County, New York City, New York,10007, United States of America
786,40.71452977,-73.94392782,NA,NYC,NA,NA,NA,752, Metropolitan Avenue, Williamsburg, Kings County, New York City, New York,11211, United States of America,,
787,41.96920293,-87.69312131,NA,Chicago,NA,NA,NA,2540, West Lawrence Avenue, West Ravenswood, Uptown, Chicago, Cook County, Illinois,60618, United States of America,
788,34.15113924,-118.36321,NA,LA,NA,NA,NA,Cartwright Avenue, Universal City, North Hollywood, Los Angeles, Los Angeles County, California,91602, United States of America,,
789,40.70780991,-74.01440305,NA,NYC,NA,NA,NA,Greenwich Club Residences, Rector Street, Battery Park City, Manhattan, New York County, New York City, New York,10006, United States of America,
790,40.72406832,-73.98628235,NA,NYC,NA,NA,NA,126, East 3rd Street, Alphabet City, Manhattan, New York County, New York City, New York,10009, United States of America,
791,40.81708738,-73.95345753,NA,NYC,NA,NA,NA,1463, Amsterdam Avenue, Manhattanville, Manhattan, New York County, New York City, New York,10027, United States of America,
792,37.74600377,-122.4748262,NA,SF,NA,NA,NA,18th Avenue, Forest Hill, San Francisco, San Francisco City and County, California,94116, United States of America,,,
793,40.73125724,-73.9814855,NA,NYC,NA,NA,NA,405, East 14th Street, East Village, Manhattan, New York County, New York City, New York,10009, United States of America,
794,38.92316389,-76.97579221,NA,DC,NA,NA,NA,2521, 20th Street Northeast, Langdon, University Heights, Washington, District of Columbia,20018, United States of America,,
795,40.75651159,-73.91484766,NA,NYC,NA,NA,NA,32-14, 46th Street, Sunnyside Gardens, Queens County, New York City, New York,11103, United States of America,,
796,34.05155067,-118.4671697,NA,LA,NA,NA,NA,Dorothy Street, Westgate, Brentwood, Los Angeles, Los Angeles County, California,90049, United States of America,,
797,40.70986855,-73.94120802,NA,NYC,NA,NA,NA,215, Stagg Walk, Williamsburg Houses, Kings County, New York City, New York,11206, United States of America,,
798,37.78413677,-122.4142411,NA,SF,NA,NA,NA,USPS, Eddy Street, West SoMa, San Francisco, San Francisco City and County, California,94102, United States of America,,
799,37.7800005,-122.4036334,NA,SF,NA,NA,NA,Avant Housing,900, Folsom Street, West SoMa, San Francisco, San Francisco City and County, California,94107, United States of America,
800,41.92300168,-87.69209343,NA,Chicago,NA,NA,NA,2244, North Maplewood Avenue, Maplewood, Chicago, Cook County, Illinois,60647, United States of America,,
801,37.74951467,-122.4412642,NA,SF,NA,NA,NA,25th Street, Noe Valley, San Francisco, San Francisco City and County, California,94114, United States of America,,,
802,40.76249275,-73.91176019,NA,NYC,NA,NA,NA,43-19, 30th Avenue, Steinway, Queens County, New York City, New York,11103, United States of America,,
803,40.83766454,-73.94047374,NA,NYC,NA,NA,NA,548, West 164th Street, Washington Heights, Manhattan, New York County, New York City, New York,10032, United States of America,
804,40.70277883,-73.92672931,NA,NYC,NA,NA,NA,241, Troutman Street, Bushwick, Kings County, New York City, New York,11237, United States of America,,
805,40.72233241,-74.00991693,NA,NYC,NA,NA,NA,426, Greenwich Street, Tribeca, Manhattan, New York County, New York City, New York,10013, United States of America,
806,37.7827483,-122.399022,NA,SF,NA,NA,NA,360, 3rd Street, South of Market, San Francisco, San Francisco City and County, California,94107, United States of America,,
807,40.77360302,-73.95999855,NA,NYC,NA,NA,NA,130, East 77th Street, Upper East Side, Manhattan, New York County, New York City, New York,10021, United States of America,
808,37.74268028,-122.4358041,NA,SF,NA,NA,NA,Diamond Street, Noe Valley, San Francisco, San Francisco City and County, California,94131, United States of America,,,
809,40.7404057,-74.00141168,NA,NYC,NA,NA,NA,259, West 15th Street, Chelsea, Manhattan, New York County, New York City, New York,10011, United States of America,
810,38.91467936,-77.04100348,NA,DC,NA,NA,NA,1754, Swann Street Northwest, Dupont Circle, Washington, District of Columbia,20009, United States of America,,,
811,34.06567474,-118.353428,NA,LA,NA,NA,NA,Lindenhurst Avenue, Park La Brea, Hollywood, Los Angeles, Los Angeles County, California,90036, United States of America,,
812,40.75657805,-73.86807357,NA,NYC,NA,NA,NA,33-25, 100th Street, East Elmhurst, Queens County, New York City, New York,11368, United States of America,,
813,40.68498404,-73.91112828,NA,NYC,NA,NA,NA,1010, Decatur Street, Bushwick, Kings County, New York City, New York,11207, United States of America,,
814,34.07664064,-118.2935148,NA,LA,NA,NA,NA,Atlcatl, Beverly Boulevard, Koreatown, Little Armenia, Los Angeles, Los Angeles County, California,90004, United States of America,
815,34.06664036,-118.3054887,NA,LA,NA,NA,NA,South Hobart Boulevard, Koreatown, Little Armenia, Los Angeles, Los Angeles County, California,90006, United States of America,,
816,40.73074579,-74.00232672,NA,NYC,NA,NA,NA,11, Carmine Street, Greenwich Village, Manhattan, New York County, New York City, New York,10014, United States of America,
817,40.76657824,-73.99334936,NA,NYC,NA,NA,NA,553, West 51st Street, Midtown West, Manhattan, New York County, New York City, New York,10019, United States of America,
818,40.68369889,-73.93324617,NA,NYC,NA,NA,NA,487, Halsey Street, Bedford-Stuyvesant, Brooklyn, Kings County, New York City, New York,11233, United States of America,
819,40.74619616,-73.97706742,NA,NYC,NA,NA,NA,211, East 35th Street, Murray Hill, Manhattan, New York County, New York City, New York,10016, United States of America,
820,34.03475197,-118.3775137,NA,LA,NA,NA,NA,La Cienega Boulevard, The Village Green, Los Angeles, Los Angeles County, California,90034, United States of America,,,
821,37.74143657,-122.4110501,NA,SF,NA,NA,NA,Powhattan Avenue, San Francisco, San Francisco City and County, California,94110, United States of America,,,,
822,34.05211556,-118.3827136,NA,LA,NA,NA,NA,Cashio Street, South Carthay, Palms, Los Angeles, Los Angeles County, California,90035, United States of America,,
823,40.66085305,-73.89893223,NA,NYC,NA,NA,NA,430, Newport Street, Marcus Garvey Village, Kings County, New York City, New York,11207, United States of America,,
824,40.73741631,-73.98218903,NA,NYC,NA,NA,NA,234, East 22nd Street, Rose Hill, Manhattan, New York County, New York City, New York,10010, United States of America,
825,40.78829615,-73.95270199,NA,NYC,NA,NA,NA,Jane B Aron Residence Hall,50, East 98th Street, Washington Houses, Manhattan, New York County, New York City, New York,10029, United States of America
826,34.0572371,-118.3990043,NA,LA,NA,NA,NA,Beverwil Drive, Beverly Hills, Los Angeles County, California,90035, United States of America,,,,
827,40.73356765,-73.95438654,NA,NYC,NA,NA,NA,1014, Manhattan Avenue, Greenpoint, Kings County, New York City, New York,11222, United States of America,,
828,40.75725183,-73.98795806,NA,NYC,NA,NA,NA,American Airlines Theatre,227, West 42nd Street, Hell's Kitchen, Manhattan, New York County, New York City, New York,10036, United States of America
829,37.77631679,-122.4371174,NA,SF,NA,NA,NA,Alouis Auto Radiator,650, Divisadero Street, North of Panhandle, San Francisco, San Francisco City and County, California,94117, United States of America,
830,40.70747011,-74.01443095,NA,NYC,NA,NA,NA,81, Washington Street, Battery Park City, Manhattan, New York County, New York City, New York,10006, United States of America,
831,34.13674062,-118.1640994,NA,LA,NA,NA,NA,California Terrace, Pasadena, Los Angeles County, California,91105, United States of America,,,,
832,34.10090263,-118.3484829,NA,LA,NA,NA,NA,Temple Israel of Hollywood,11601, North Fuller Avenue, Whitley Heights, Los Angeles, Los Angeles County, California,90046, United States of America,
833,40.7977632,-73.9382886,NA,NYC,NA,NA,NA,236, East 117th Street, East Harlem, Manhattan, New York County, New York City, New York,10035, United States of America,
834,40.76217536,-73.98911108,NA,NYC,NA,NA,NA,359, West 48th Street, Clinton, Manhattan, New York County, New York City, New York,10019, United States of America,
835,40.69072014,-73.99033872,NA,NYC,NA,NA,NA,Edison ParkFast,92, Livingston Street, Cobble Hill, Kings County, New York City, New York,11201, United States of America,
836,40.71890838,-73.9909502,NA,NYC,NA,NA,NA,99, Allen Street, Chinatown, Manhattan, New York County, New York City, New York,10002, United States of America,
837,40.80954211,-73.94227354,NA,NYC,NA,NA,NA,38, West 129th Street, Harlem, Manhattan, New York County, New York City, New York,10027, United States of America,
838,40.74727308,-74.00146376,NA,NYC,NA,NA,NA,400, West 24th Street, Chelsea, Manhattan, New York County, New York City, New York,10011, United States of America,
839,34.09845679,-117.8615607,NA,LA,NA,NA,NA,East Covina Boulevard, Covina, Los Angeles County, California,91724, United States of America,,,,
840,40.77763582,-73.91127893,NA,NYC,NA,NA,NA,21-58, 29th Street, Steinway, Queens County, New York City, New York,11105, United States of America,,
841,40.70352323,-73.93721341,NA,NYC,NA,NA,NA,393, Bushwick Avenue, Bedford-Stuyvesant, Kings County, New York City, New York,11206, United States of America,,
842,34.09668957,-118.3929544,NA,LA,NA,NA,NA,Bobolink Place, Los Angeles, Los Angeles County, California,90069, United States of America,,,,
843,34.30112778,-118.5056178,NA,LA,NA,NA,NA,Dorina Place, Los Angeles, Los Angeles County, California,91344, United States of America,,,,
844,38.94326897,-77.02516067,NA,DC,NA,NA,NA,4314, 9th Street Northwest, Petworth, Columbia Heights, Washington, District of Columbia,20012, United States of America,,
845,38.90052968,-76.99041739,NA,DC,NA,NA,NA,808, 12th Street Northeast, Stanton Park, Capitol Hill, Washington, District of Columbia,20002, United States of America,,
846,40.64809232,-73.96769793,NA,NYC,NA,NA,NA,58, Argyle Road, Ditmas Park, Brooklyn, Kings County, New York City, New York,11218, United States of America,
847,40.65137218,-73.96084222,NA,NYC,NA,NA,NA,465, Ocean Avenue, Flatbush, Brooklyn, Kings County, New York City, New York,11226, United States of America,
848,38.91944259,-77.07992116,NA,DC,NA,NA,NA,2204, 40th Place Northwest, Glover Park, Washington, District of Columbia,20007, United States of America,,,
849,34.1107843,-118.3208477,NA,LA,NA,NA,NA,Cocos Drive, Hollywood, Los Angeles, Los Angeles County, California,90068, United States of America,,,
850,40.80925167,-73.91752796,NA,NYC,NA,NA,NA,510, East 141st Street, Mott Haven, Bronx County, New York City, New York,10454, United States of America,,
851,40.70499253,-73.92536301,NA,NYC,NA,NA,NA,26, Irving Avenue, Bushwick, Kings County, New York City, New York,11237, United States of America,,
852,40.73235461,-73.95105912,NA,NYC,NA,NA,NA,218, India Street, Greenpoint, Kings County, New York City, New York,11222, United States of America,,
853,33.76934633,-118.1756509,NA,LA,NA,NA,NA,Bird Way, Belmont Shore, Long Beach, Los Angeles County, California,90802, United States of America,,,
854,37.795371,-122.4246068,NA,SF,NA,NA,NA,Saint Brigid School, Franklin Street, Japantown, San Francisco, San Francisco City and County, California,94109, United States of America,,
855,40.65067989,-73.96282892,NA,NYC,NA,NA,NA,130, Saint Paul Place, Flatbush, Brooklyn, Kings County, New York City, New York,11226, United States of America,
856,34.159208,-118.123849,NA,LA,NA,NA,NA,North Chester Avenue, Pasadena, Los Angeles County, California,91104, United States of America,,,,
857,40.77638574,-73.95870157,NA,NYC,NA,NA,NA,108, East 81st Street, Yorkville, Manhattan, New York County, New York City, New York,10028, United States of America,
858,40.67603036,-73.98239282,NA,NYC,NA,NA,NA,618, President Street, Park Slope, Brooklyn, Kings County, New York City, New York,11215, United States of America,
859,40.59964731,-73.95338171,NA,NYC,NA,NA,NA,2071, East 18th Street, Sheepshead Bay, Kings County, New York City, New York,11229, United States of America,,
860,34.07964024,-118.4710382,NA,LA,NA,NA,NA,Bellagio Road, Westgate Heights, Westwood, Los Angeles, Los Angeles County, California,90049, United States of America,,
861,41.96211903,-87.66289613,NA,Chicago,NA,NA,NA,4414-4416, North Malden Street, Sunnyside, Uptown, Chicago, Cook County, Illinois,60640, United States of America,
862,34.1186175,-118.3166891,NA,LA,NA,NA,NA,Locksley Place, Little Armenia, Los Angeles, Los Angeles County, California,90068, United States of America,,,
863,40.65920615,-73.95806926,NA,NYC,NA,NA,NA,77, Rutland Road, Crown Heights, Brooklyn, Kings County, New York City, New York,11225, United States of America,
864,40.72086959,-73.97951706,NA,NYC,NA,NA,NA,302, East 3rd Street, Alphabet City, Manhattan, New York County, New York City, New York,10009, United States of America,
865,40.79658887,-73.93501091,NA,NYC,NA,NA,NA,2269, 1st Avenue, East Harlem, Manhattan, New York County, New York City, New York,10035, United States of America,
866,40.71399135,-73.94756135,NA,NYC,NA,NA,NA,288, Leonard Street, Williamsburg, Kings County, New York City, New York,11211, United States of America,,
867,34.16176849,-118.3594015,NA,LA,NA,NA,NA,Strohm Avenue, La Paco, North Hollywood, Los Angeles, Los Angeles County, California,91601, United States of America,,
868,40.71349881,-74.006852,NA,NYC,NA,NA,NA,259, Broadway, Tribeca, Manhattan, New York County, New York City, New York,10007, United States of America,
869,37.77191661,-122.4435415,NA,SF,NA,NA,NA,Central Avenue, Haight-Ashbury, San Francisco, San Francisco City and County, California,94117, United States of America,,,
870,40.65914561,-73.96004238,NA,NYC,NA,NA,NA,11, Rutland Road, Crown Heights, Brooklyn, Kings County, New York City, New York,11225, United States of America,
871,34.02305,-118.1977293,NA,LA,NA,NA,NA,Esperanza Street, Boyle Heights, Los Angeles, Los Angeles County, California,90023, United States of America,,,
872,40.71888532,-73.95795639,NA,NYC,NA,NA,NA,140, North 8th Street, Williamsburg, Kings County, New York City, New York,11249, United States of America,,
873,38.9324196,-77.02702692,NA,DC,NA,NA,NA,3408, Sherman Avenue Northwest, Columbia Heights, Washington, District of Columbia,20010, United States of America,,,
874,41.90681677,-87.67312715,NA,Chicago,NA,NA,NA,1339, North Wicker Park Avenue, Wicker Park, Near North Side, Chicago, Cook County, Illinois,60622, United States of America,
875,34.06888426,-118.2543622,NA,LA,NA,NA,NA,Calumet Avenue, Echo Park, Angelino Heights, Los Angeles, Los Angeles County, California,90026, United States of America,,
876,34.25085992,-118.3529975,NA,LA,NA,NA,NA,Kalua Drive, Shadow Hills, Los Angeles, Los Angeles County, California,91040, United States of America,,,
877,34.1243277,-118.1913183,NA,LA,NA,NA,NA,Le Gray Avenue, Highland Park, Los Angeles, Los Angeles County, California,90042, United States of America,,,
878,34.09975409,-118.3047488,NA,LA,NA,NA,NA,North Harvard Boulevard, East Hollywood, Little Armenia, Los Angeles, Los Angeles County, California,90027, United States of America,,
879,40.78071807,-73.94964924,NA,NYC,NA,NA,NA,1740, 2nd Avenue, Yorkville, Manhattan, New York County, New York City, New York,10128, United States of America,
880,40.76309014,-73.9915472,NA,NYC,NA,NA,NA,437, West 48th Street, Clinton, Manhattan, New York County, New York City, New York,10019, United States of America,
881,34.02138303,-118.3957099,NA,LA,NA,NA,NA,Culver City Hall, Culver Boulevard, Culver City, Los Angeles County, California,90293, United States of America,,,
882,34.13380715,-118.6466945,NA,LA,NA,NA,NA,Mulholland Highway, Calabasas, Los Angeles County, California,91302, United States of America,,,,
883,41.99672946,-87.66259538,NA,Chicago,NA,NA,NA,6311, North Lakewood Avenue, Edgewater Glen, Chicago, Cook County, Illinois,60626, United States of America,,
884,38.88604623,-77.00036054,NA,DC,NA,NA,NA,335, C Street Southeast, Capitol Hill, Washington, District of Columbia,20003, United States of America,,,
885,40.71789792,-73.98931314,NA,NYC,NA,NA,NA,350, Grand Street, Lower East Side, Manhattan, New York County, New York City, New York,10002, United States of America,
886,40.7512566,-73.96945351,NA,NYC,NA,NA,NA,The Sands,321, East 45th Street, Tudor City, Manhattan, New York County, New York City, New York,10017, United States of America
887,34.10367122,-118.3304762,NA,LA,NA,NA,NA,Yucca Street, Hollywood, Los Angeles, Los Angeles County, California,90028, United States of America,,,
888,40.80791695,-73.96728287,NA,NYC,NA,NA,NA,425, Riverside Drive, Morningside Heights, Manhattan, New York County, New York City, New York,10025, United States of America,
889,40.74538352,-73.92138594,NA,NYC,NA,NA,NA,41-38, 43rd Street, Sunnyside Gardens, Queens County, New York City, New York,11104, United States of America,,
890,34.01894609,-118.4901797,NA,LA,NA,NA,NA,CVS, Lincoln Boulevard, Santa Monica, Los Angeles County, California,90045, United States of America,,,
891,33.72616699,-118.2980995,NA,LA,NA,NA,NA,West 20th Street, San Pedro, Los Angeles, Los Angeles County, California,90732, United States of America,,,
892,34.07766891,-118.3498985,NA,LA,NA,NA,NA,North Fuller Avenue, Park La Brea, Hollywood, Los Angeles, Los Angeles County, California,90046, United States of America,,
893,40.72401226,-73.72900559,NA,NYC,NA,NA,NA,237-28, 93rd Avenue, Queens Village, Queens County, New York City, New York,11426, United States of America,,
894,40.7294738,-73.97849922,NA,NYC,NA,NA,NA,542, East 14th Street, Alphabet City, Manhattan, New York County, New York City, New York,10009, United States of America,
895,41.95604242,-87.65051653,NA,Chicago,NA,NA,NA,814-816, West Cuyler Avenue, Buena Park, Uptown, Chicago, Cook County, Illinois,60613, United States of America,
896,40.69712061,-73.93054923,NA,NYC,NA,NA,NA,65, Suydam Street, Bushwick, Kings County, New York City, New York,11221, United States of America,,
897,40.69918411,-73.94513261,NA,NYC,NA,NA,NA,Junior High School 148 (historical),185, Ellery Street, Bedford-Stuyvesant, Brooklyn, Kings County, New York City, New York,11206, United States of America
898,34.20598036,-118.3827997,NA,LA,NA,NA,NA,Camellia Elementary School,11601, Camellia Avenue, Hewitt, North Hollywood, Los Angeles, Los Angeles County, California,91605, United States of America
899,40.78224678,-73.95362846,NA,NYC,NA,NA,NA,1364, Lexington Avenue, Yorkville, Manhattan, New York County, New York City, New York,10128, United States of America,
900,37.78723947,-122.3960788,NA,SF,NA,NA,NA,Consulate General of Mexico, San Francisco,532, Folsom Street, Financial District, San Francisco, San Francisco City and County, California,94105, United States of America
901,34.05399172,-118.3267548,NA,LA,NA,NA,NA,Country Club Drive, Oxford Square, Cienega, Los Angeles, Los Angeles County, California,90019, United States of America,,
902,42.33214299,-71.04048895,NA,Boston,NA,NA,NA,Brewster Street, Dorchester Heights, South Boston, Boston, Suffolk County, Massachusetts,2127, United States of America,,
903,40.72155962,-73.98866145,NA,NYC,NA,NA,NA,86, Stanton Street, Lower East Side, Manhattan, New York County, New York City, New York,10002, United States of America,
904,33.99633207,-118.4495831,NA,LA,NA,NA,NA,Glyndon Avenue, Mar Vista, Los Angeles, Los Angeles County, California,90291, United States of America,,,
905,40.7599492,-73.99436941,NA,NYC,NA,NA,NA,Manhattan Plaza Apartments II, West 43rd Street, Hell's Kitchen, Manhattan, New York County, New York City, New York,10036, United States of America,
906,42.36970192,-71.032283,NA,Boston,NA,NA,NA,Geneva Street, Jeffries Point, East Boston, Boston, Suffolk County, Massachusetts,2128, United States of America,,
907,37.76276202,-122.506234,NA,SF,NA,NA,NA,S F Swatow Christian Church,4508, Irving Street, Sunset District, San Francisco, San Francisco City and County, California,94122, United States of America,
908,38.92728622,-76.99720219,NA,DC,NA,NA,NA,625, Hamlin Street Northeast, Edgewood, University Heights, Washington, District of Columbia,20017, United States of America,,
909,38.89810063,-76.98270282,NA,DC,NA,NA,NA,1519, Gales Street Northeast, Kingman Park, Capitol Hill, Washington, District of Columbia,20002, United States of America,,
910,40.71120727,-74.00725703,NA,NYC,NA,NA,NA,7, Theater Alley, Southbridge Towers, Manhattan, New York County, New York City, New York,10038, United States of America,
911,40.78521071,-73.95006364,NA,NYC,NA,NA,NA,1700, 3rd Avenue, Yorkville, Manhattan, New York County, New York City, New York,10128, United States of America,
912,40.83153384,-73.94592985,NA,NYC,NA,NA,NA,540, West 153rd Street, Hamilton Heights, Manhattan, New York County, New York City, New York,10031, United States of America,
913,34.13667952,-118.2482943,NA,LA,NA,NA,NA,Windsor Road, Glendale, Los Angeles County, California,91205, United States of America,,,,
914,40.68742284,-73.92197709,NA,NYC,NA,NA,NA,977, Putnam Avenue, Bedford-Stuyvesant, Brooklyn, Kings County, New York City, New York,11221, United States of America,
915,37.78987079,-122.4690077,NA,SF,NA,NA,NA,CA 1, Presidio Terrace, San Francisco, San Francisco City and County, California,94129, United States of America,,,
916,37.80275728,-122.4240683,NA,SF,NA,NA,NA,Van Ness Inn Hotel,2850, Van Ness Avenue, Russian Hill, San Francisco, San Francisco City and County, California,94109, United States of America,
917,40.80102153,-73.9400479,NA,NYC,NA,NA,NA,1940, Lexington Avenue, East Harlem, Manhattan, New York County, New York City, New York,10035, United States of America,
918,40.72978856,-74.00305466,NA,NYC,NA,NA,NA,17, Downing Street, Greenwich Village, Manhattan, New York County, New York City, New York,10014, United States of America,
919,40.76347049,-73.91694677,NA,NYC,NA,NA,NA,30-40, 38th Street, Sunnyside Gardens, Queens County, New York City, New York,11103, United States of America,,
920,38.94240619,-77.03321148,NA,DC,NA,NA,NA,4214, 14th Street Northwest, Columbia Heights, Washington, District of Columbia,20010, United States of America,,,
921,40.73608021,-74.00197642,NA,NYC,NA,NA,NA,Saint John's Church,224, Waverly Place, Greenwich Village, Manhattan, New York County, New York City, New York,10014, United States of America
922,34.09853911,-118.32285,NA,LA,NA,NA,NA,Columbia Square, West Sunset Boulevard, Hollywood, Los Angeles, Los Angeles County, California,90028, United States of America,,
923,34.18520519,-118.5970147,NA,LA,NA,NA,NA,Blue Shield of California (Trillium West),6300, Canoga Avenue, Warner Center, Los Angeles, Los Angeles County, California,91303, United States of America,
924,34.13904564,-118.3870657,NA,LA,NA,NA,NA,Laurelwood Drive, Studio City, Valley Village, Los Angeles, Los Angeles County, California,91604, United States of America,,
925,40.76339592,-73.98869513,NA,NYC,NA,NA,NA,742, 9th Avenue, Clinton, Manhattan, New York County, New York City, New York,10019, United States of America,
926,37.78772267,-122.4126959,NA,SF,NA,NA,NA,Avis,675, Post Street, Nob Hill, San Francisco, San Francisco City and County, California,94115, United States of America,
927,34.15291492,-118.1430015,NA,LA,NA,NA,NA,North Euclid Avenue, Pasadena, Los Angeles County, California,91101, United States of America,,,,
928,40.65266297,-73.96395362,NA,NYC,NA,NA,NA,48, Saint Paul Place, Flatbush, Brooklyn, Kings County, New York City, New York,11226, United States of America,
929,40.72972275,-73.95519993,NA,NYC,NA,NA,NA,151, Milton Street, Greenpoint, Kings County, New York City, New York,11222, United States of America,,
930,34.10848841,-118.299056,NA,LA,NA,NA,NA,North Alexandria Avenue, East Hollywood, Little Armenia, Los Angeles, Los Angeles County, California,90027, United States of America,,
931,40.72601454,-73.97673661,NA,NYC,NA,NA,NA,706, East 11th Street, East Village, Manhattan, New York County, New York City, New York,10009, United States of America,
932,40.76645946,-73.92847329,NA,NYC,NA,NA,NA,31-03, 23rd Street, Astoria, Queens County, New York City, New York,11106, United States of America,,
933,42.31377538,-71.0551617,NA,Boston,NA,NA,NA,Elton Street, Savin Hill, South Boston, Boston, Suffolk County, Massachusetts,2125, United States of America,,
934,41.90398861,-87.63210954,NA,Chicago,NA,NA,NA,The Sinclair, North Clark Street, Gold Coast, Near North Side, Chicago, Cook County, Illinois,60614, United States of America,
935,40.66092001,-73.95400589,NA,NYC,NA,NA,NA,207, Maple Street, Crown Heights, Brooklyn, Kings County, New York City, New York,11225, United States of America,
936,40.74202293,-73.78820819,NA,NYC,NA,NA,NA,58-09, 187th Street, Fresh Meadows, Queens, Queens County, New York City, New York,11365, United States of America,
937,40.67407536,-73.9552908,NA,NYC,NA,NA,NA,677, Park Place, Crown Heights, Brooklyn, Kings County, New York City, New York,11216, United States of America,
938,34.00170174,-118.4678799,NA,LA,NA,NA,NA,Out of the closet,214, Lincoln Boulevard, Venice, Los Angeles, Los Angeles County, California,90291, United States of America,
939,40.71964401,-73.95538343,NA,NYC,NA,NA,NA,117, Bedford Avenue, Williamsburg, Kings County, New York City, New York,11211, United States of America,,
940,33.82158994,-118.3883018,NA,LA,NA,NA,NA,South Catalina Avenue, Redondo Beach, Los Angeles County, California,90277, United States of America,,,,
941,37.7880506,-122.416072,NA,SF,NA,NA,NA,Vertigo,940, Sutter Street, Nob Hill, San Francisco, San Francisco City and County, California,94109, United States of America,
942,40.72176107,-73.99520826,NA,NYC,NA,NA,NA,21, Spring Street, SoHo, Manhattan, New York County, New York City, New York,10012, United States of America,
943,37.76497364,-122.4645192,NA,SF,NA,NA,NA,1251, 7th Avenue, Inner Sunset, San Francisco, San Francisco City and County, California,94122, United States of America,,
944,34.19591172,-118.4563492,NA,LA,NA,NA,NA,Bevis Avenue, North Sherman Way, Van Nuys, Los Angeles, Los Angeles County, California,91405, United States of America,,
945,33.99565703,-118.3030899,NA,LA,NA,NA,NA,West 51st Place, Wildasin, Leimert Park, Los Angeles, Los Angeles County, California,90062, United States of America,,
946,37.76194322,-122.4802331,NA,SF,NA,NA,NA,1701, Judah Street, Sunset District, San Francisco, San Francisco City and County, California,94122, United States of America,,
947,40.68015019,-73.93550009,NA,NYC,NA,NA,NA,58, Bainbridge Street, Bedford-Stuyvesant, Brooklyn, Kings County, New York City, New York,11233, United States of America,
948,34.17760362,-118.506917,NA,LA,NA,NA,NA,Ostrom Avenue, Encino, Los Angeles, Los Angeles County, California,91316, United States of America,,,
949,37.79246434,-122.4217798,NA,SF,NA,NA,NA,Washington & Polk (on-street), Clay Street, Nob Hill, San Francisco, San Francisco City and County, California,94109, United States of America,,
950,34.06521559,-118.3744934,NA,LA,NA,NA,NA,North Gale Drive, Beverly Hills, Los Angeles County, California,90211, United States of America,,,,
951,34.03500319,-118.4712521,NA,LA,NA,NA,NA,Christian and Missionary Alliance Church, Santa Monica Place South, Santa Monica, Los Angeles County, California, CA 90404, United States of America,,,
952,34.19313335,-118.4732956,NA,LA,NA,NA,NA,Aqueduct Avenue, Van Nuys, Los Angeles, Los Angeles County, California,91406, United States of America,,,
953,40.68656583,-73.94071583,NA,NYC,NA,NA,NA,Public School 44,432, Monroe Street, Bedford-Stuyvesant, Brooklyn, Kings County, New York City, New York,11221, United States of America
954,34.13273943,-118.2380916,NA,LA,NA,NA,NA,Oberlin Drive, Glendale, Los Angeles County, California,91205, United States of America,,,,
955,41.89451512,-87.66423063,NA,Chicago,NA,NA,NA,1446, West Huron Street, Near West Side, Near North Side, Chicago, Cook County, Illinois,60612, United States of America,
956,40.74071489,-74.0022764,NA,NYC,NA,NA,NA,Chase, West 15th Street, Chelsea, Manhattan, New York County, New York City, New York,10011, United States of America,
957,40.66476603,-73.99516431,NA,NYC,NA,NA,NA,140, 18th Street, South Slope, Brooklyn, Kings County, New York City, New York,11215, United States of America,
958,38.92773598,-77.03086403,NA,DC,NA,NA,NA,1307, Columbia Road Northwest, Columbia Heights, Washington, District of Columbia,20009, United States of America,,,
959,40.74801624,-73.97460577,NA,NYC,NA,NA,NA,Paramount Tower,240, East 39th Street, Tudor City, Manhattan, New York County, New York City, New York,10016, United States of America
960,38.92359293,-77.042389,NA,DC,NA,NA,NA,1777, Columbia Road Northwest, Woodley Park, Washington, District of Columbia,20009, United States of America,,,
961,33.97385042,-117.9042943,NA,LA,NA,NA,NA,Marimba Street, Rowland Heights, Los Angeles County, California,91748, United States of America,,,,
962,37.79516611,-122.4037532,NA,SF,NA,NA,NA,655, Montgomery Street, Chinatown, San Francisco, San Francisco City and County, California,94111, United States of America,,
963,40.75134185,-73.96807013,NA,NYC,NA,NA,NA,50 United Nations Plaza, Dag Hammarskjold Plaza, Tudor City, Manhattan, New York County, New York City, New York,10017, United States of America,
964,34.04034835,-118.3118462,NA,LA,NA,NA,NA,South Saint Andrew's Place, Country Club Park, Cienega, Los Angeles, Los Angeles County, California,90019, United States of America,,
965,40.74239123,-73.98383472,NA,NYC,NA,NA,NA,114, East 27th Street, Rose Hill, Manhattan, New York County, New York City, New York,10016, United States of America,
966,40.77704995,-73.93443073,NA,NYC,NA,NA,NA,Hellgate Field, 2nd Street, Astoria, Queens County, New York City, New York,11102, United States of America,,
967,34.10142968,-118.3378529,NA,LA,NA,NA,NA,6756-6760, Hollywood Boulevard, Whitley Heights, Los Angeles, Los Angeles County, California,90028, United States of America,,
968,38.88993712,-76.99586656,NA,DC,NA,NA,NA,704, East Capitol Street Northeast, Capitol Hill, Washington, District of Columbia,20003, United States of America,,,
969,34.18492625,-118.5183862,NA,LA,NA,NA,NA,White Oak Avenue, Reseda, Los Angeles, Los Angeles County, California,91325, United States of America,,,
970,34.14285398,-118.1477387,NA,LA,NA,NA,NA,Sushi Kimagure Ike,220, South Raymond Avenue, Pasadena, Los Angeles County, California,91105, United States of America,,
971,40.68995388,-73.92843703,NA,NYC,NA,NA,NA,759, Quincy Street, Bedford-Stuyvesant, Brooklyn, Kings County, New York City, New York,11221, United States of America,
972,41.88697673,-87.62214909,NA,Chicago,NA,NA,NA,Park Millennium, Pedway, Streeterville, Near North Side, Chicago, Cook County, Illinois,60601, United States of America,
973,34.09796056,-118.3179566,NA,LA,NA,NA,NA,DASH,11601, West Sunset Boulevard, Little Armenia, Los Angeles, Los Angeles County, California,90028, United States of America,
974,41.90863568,-87.6728755,NA,Chicago,NA,NA,NA,1450, North Wood Street, Wicker Park, Near North Side, Chicago, Cook County, Illinois,60614, United States of America,
975,40.71189462,-73.9628222,NA,NYC,NA,NA,NA,349, Bedford Avenue, Williamsburg, Kings County, New York City, New York,11211, United States of America,,
976,34.1020647,-118.3777398,NA,LA,NA,NA,NA,Queens Road, Whitley Heights, Los Angeles, Los Angeles County, California,90069, United States of America,,,
977,40.76720259,-73.96949612,NA,NYC,NA,NA,NA,15, East 64th Street, Upper East Side, Manhattan, New York County, New York City, New York,10065, United States of America,
978,34.06746753,-118.3620809,NA,LA,NA,NA,NA,West 5th Street, Carthay Circle, The Village Green, Los Angeles, Los Angeles County, California,90048, United States of America,,
979,34.05321218,-118.7898307,NA,LA,NA,NA,NA,Murphy Motorway, Malibu Vista, Los Angeles County, California,90265, United States of America,,,,
980,33.98178165,-118.4671676,NA,LA,NA,NA,NA,Pacific Avenue, Venice, Los Angeles, Los Angeles County, California,90292, United States of America,,,
981,42.35634334,-71.1495482,NA,Boston,NA,NA,NA,New Balance Factory Store, North Beacon Street, North Brighton, Brighton, Boston, Suffolk County, Massachusetts,2135, United States of America,
982,37.79490538,-122.4275927,NA,SF,NA,NA,NA,94109; 94115, Broadway, Pacific Heights, San Francisco, San Francisco City and County, California, 94109; 94115, United States of America,,
983,40.76495832,-73.91169411,NA,NYC,NA,NA,NA,25-87, 42nd Street, Sunnyside Gardens, Queens County, New York City, New York,11103, United States of America,,
984,38.86235214,-76.98730348,NA,DC,NA,NA,NA,2319, High Street Southeast, Anacostia, Washington, District of Columbia,20020, United States of America,,,
985,33.78618778,-118.1500988,NA,LA,NA,NA,NA,Loma Avenue, Belmont Shore, Long Beach, Los Angeles County, California,90804, United States of America,,,
986,40.76424645,-73.98654143,NA,NYC,NA,NA,NA,331, West 52nd Street, Lincoln Square, Manhattan, New York County, New York City, New York,10019, United States of America,
987,37.80191584,-122.4231919,NA,SF,NA,NA,NA,1320, Lombard Street, Russian Hill, San Francisco, San Francisco City and County, California,94109, United States of America,,
